{
"type": "FeatureCollection",
"name": "clues_en_operacion_con_info_accesibilidad",
"crs": { "type": "name", "properties": { "name": "urn:ogc:def:crs:OGC:1.3:CRS84" } },
"features": [
{ "type": "Feature", "properties": { "CLUES": "HGDIF000014", "CLAVE.DE.LA.INSTITUCION": "DIF", "NOMBRE.DE.LA.INSTITUCION": "SISTEMA NACIONAL PARA EL DESARROLLO INTEGRAL DE LA FAMILIA", "CLAVE.DE.LA.ENTIDAD": "13", "ENTIDAD": "HIDALGO", "CLAVE.DEL.MUNICIPIO": "048", "MUNICIPIO": "PACHUCA DE SOTO", "CLAVE.DE.LA.LOCALIDAD": "0001", "LOCALIDAD": "PACHUCA DE SOTO", "CLAVE.DE.LA.JURISDICCION": "03", "JURISDICCION": "PACHUCA DE SOTO", "CLAVE.DEL.TIPO.ESTABLECIMIENTO": "2", "NOMBRE.TIPO.ESTABLECIMIENTO": "DE HOSPITALIZACIÓN", "CLAVE.DE.TIPOLOGIA": "99", "NOMBRE.DE.TIPOLOGIA": "NO ESPECIFICADO", "CLAVE.DE.SUBTIPOLOGIA": "99", "NOMBRE.DE.SUBTIPOLOGIA": "NO ESPECIFICADO", "NOMBRE.DE.LA.UNIDAD": "HOSPITAL DEL NIÑO DIF (GOB. DE HGO.)", "NOMBRE.COMERCIAL": "HOSPITAL DEL NIÑO DIF (GOB. DE HGO.)", "CLAVE.TIPO.DE.VIALIDAD": "24", "TIPO.DE.VIALIDAD": "CARRETERA", "VIALIDAD": "CARRETERA MÉXICO-PACHUCA", "NUMERO.EXTERIOR": "KM. 82", "NUMERO.INTERIOR": null, "CLAVE.TIPO.DE.ASENTAMIENTO": null, "TIPO.DE.ASENTAMIENTO": null, "ASENTAMIENTO": "VENTA PRIETA", "CODIGO.POSTAL": "42083", "OBSERVACIONES.DE.LA.DIRECCION": "A UN COSTADO DEL MUSEO \"EL REHILETE\"", "CLAVE.ESTATUS.DE.OPERACION": "1", "ESTATUS.DE.OPERACION": "EN OPERACION", "RFC.DEL.ESTABLECIMIENTO": null, "TELEFONO.1.DEL.ESTABLECIMIENTO": null, "EXTENSION.TELEFONICA.1.DEL.ESTABLECIMIENTO": null, "TELEFONO.2.DEL.ESTABLECIMIENTO": null, "EXTENSION.TELEFONICA.2.DEL.ESTABLECIMIENTO": null, "FECHA.DE.CONSTRUCCION": null, "FECHA.DE.INICIO.DE.OPERACION": "25/03/2010", "CLAVE.UNIDAD.MOVIL.MARCA": null, "UNIDAD.MOVIL.MARCA": null, "UNIDAD.MOVIL.MARCA.ESPECIFICA": null, "UNIDAD.MOVIL.MODELO": null, "CLAVE.UNIDAD.MOVIL.PROGRAMA": null, "UNIDAD.MOVIL.PROGRAMA": null, "CLAVE.UNIDAD.MOVIL.TIPO": null, "UNIDAD.MOVIL.TIPO": null, "CLAVE.UNIDAD.MOVIL.TIPOLOGIA": null, "UNIDAD.MOVIL.TIPOLOGIA": null, "CLAVE.DE.LA.INS.ADM": "DIFE", "NOMBRE.DE.LA.INS.ADM": "DIF ESTATAL", "CLAVE.NIVEL.ATENCION": "3", "NIVEL.ATENCION": "TERCER NIVEL", "CLAVE.ESTRATO.UNIDAD": "2", "ESTRATO.UNIDAD": "URBANO", "CLAVE.TIPO.OBRA": null, "TIPO.OBRA": null, "CLAVE.PROPIEDAD.DEL.INMUEBLE": null, "PROPIEDAD.DEL.INMUEBLE": null, "CLAVE.ULTIMO.MOVIMIENTO": null, "ULTIMO.MOVIMIENTO": null, "FECHA.ULTIMO.MOVIMIENTO": null, "COMENTARIOS.DE.LA.VALIDACION": null, "CLAVE.MOTIVO.BAJA": null, "MOTIVO.BAJA": null, "FECHA.EFECTIVA.DE.BAJA": null, "archivo_origen": "3er_N_Público", "Conteo_N1_T10": 0, "Conteo_N1_T20": 0, "Conteo_N1_T40": 0, "Conteo_N1_T60": 0, "Conteo_N2_T10": 0, "Conteo_N2_T20": 0, "Conteo_N2_T40": 0, "Conteo_N2_T60": 0, "Conteo_N3_T10": 0, "Conteo_N3_T20": 1, "Conteo_N3_T40": 1, "Conteo_N3_T60": 1, "CLUES_N1_mas_cercano": "HGIMB000344", "Tiempo_promedio_CLUES_N1_mas_cercano": 107.660816135982, "CLUES_N2_mas_cercano": "HGIMB004800", "Tiempo_promedio_CLUES_N2_mas_cercano": 97.440897234838005, "CLUES_N3_mas_cercano": "HGIMB002304", "Tiempo_promedio_CLUES_N3_mas_cercano": 14.0834253621187, "POB1_T10": 35193.529394088298, "POB42_T10": 18613.7730248997, "POB84_T10": 16513.893831968999, "POB17_T10": 33706.9267253207, "POB18_T10": 32571.432728824399, "POB19_T10": 28355.652009849298, "POB20_T10": 26594.632796299102, "POB21_T10": 24754.5068207451, "POB22_T10": 20657.614048928299, "POB23_T10": 4704.7784775620503, "POB24_T10": 3248.81551152676, "POB25_T10": 2079.0571106110201, "SALUD1_T10": 24808.118440779701, "SALUD2_T10": 10294.548416088999, "SALUD3_T10": 12027.6780533089, "SALUD4_T10": 1887.9890495869199, "SALUD5_T10": 9819.9456373089306, "SALUD6_T10": 548.68547723181302, "SALUD7_T10": 341.36770026359699, "SALUD8_T10": 228, "SALUD9_T10": 103.322564983812, "SALUD10_T10": 137.299826547355, "CLUES_N1_10_T10": 0, "CLUES_N1_20_T10": 0, "CLUES_N1_40_T10": 0, "CLUES_N1_60_T10": 0, "tiempo_promedio_clues_N1_mas_cercano_T10": 0, "id_clues_N1_mas_cercano_T10": 0, "CLUES_N2_10_T10": 0, "CLUES_N2_20_T10": 0, "CLUES_N2_40_T10": 0, "CLUES_N2_60_T10": 0, "tiempo_promedio_clues_N2_mas_cercano_T10": 0, "id_clues_N2_mas_cercano_T10": 0, "CLUES_N3_10_T10": 0, "CLUES_N3_20_T10": 0, "CLUES_N3_40_T10": 0, "CLUES_N3_60_T10": 0, "tiempo_promedio_clues_N3_mas_cercano_T10": 0, "id_clues_N3_mas_cercano_T10": 0, "POB1_T20": 61823.9272215655, "POB42_T20": 32233.300367802301, "POB84_T20": 29477.568844871799, "POB17_T20": 59082.693526319199, "POB18_T20": 57041.749665517098, "POB19_T20": 49471.058046890597, "POB20_T20": 46256.524188336698, "POB21_T20": 42965.823844480197, "POB22_T20": 35708.255710433397, "POB23_T20": 8106.2626375668397, "POB24_T20": 5618.5014457837196, "POB25_T20": 3698.5350315352998, "SALUD1_T20": 44641.966861354696, "SALUD2_T20": 17027.1320107192, "SALUD3_T20": 20527.903470888901, "SALUD4_T20": 2523.1254522344798, "SALUD5_T20": 20119.971526545101, "SALUD6_T20": 723.42693646942303, "SALUD7_T20": 483.52840299658197, "SALUD8_T20": 271.502450176737, "SALUD9_T20": 129.734820115448, "SALUD10_T20": 286.58908079538497, "CLUES_N1_10_T20": 0, "CLUES_N1_20_T20": 0, "CLUES_N1_40_T20": 0, "CLUES_N1_60_T20": 0, "tiempo_promedio_clues_N1_mas_cercano_T20": 0, "id_clues_N1_mas_cercano_T20": 0, "CLUES_N2_10_T20": 0, "CLUES_N2_20_T20": 0, "CLUES_N2_40_T20": 0, "CLUES_N2_60_T20": 0, "tiempo_promedio_clues_N2_mas_cercano_T20": 0, "id_clues_N2_mas_cercano_T20": 0, "CLUES_N3_10_T20": 0, "CLUES_N3_20_T20": 0, "CLUES_N3_40_T20": 0, "CLUES_N3_60_T20": 0, "tiempo_promedio_clues_N3_mas_cercano_T20": 0, "id_clues_N3_mas_cercano_T20": 0, "POB1_T40": 142404.715084822, "POB42_T40": 73994.465692985803, "POB84_T40": 68095.325505021101, "POB17_T40": 136480.40907260799, "POB18_T40": 132102.28738160001, "POB19_T40": 115647.241160912, "POB20_T40": 108442.56172740299, "POB21_T40": 101012.564012737, "POB22_T40": 84812.4701158885, "POB23_T40": 20077.3019461855, "POB24_T40": 13818.893390020099, "POB25_T40": 9060.0493491185898, "SALUD1_T40": 102828.985425156, "SALUD2_T40": 39136.097460623001, "SALUD3_T40": 59509.7178147784, "SALUD4_T40": 5647.7150184606098, "SALUD5_T40": 35100.021900343498, "SALUD6_T40": 952.05698810833303, "SALUD7_T40": 1234.83324890982, "SALUD8_T40": 577.08312227454098, "SALUD9_T40": 247, "SALUD10_T40": 529.84138708417402, "CLUES_N1_10_T40": 0, "CLUES_N1_20_T40": 0, "CLUES_N1_40_T40": 0, "CLUES_N1_60_T40": 0, "tiempo_promedio_clues_N1_mas_cercano_T40": 0, "id_clues_N1_mas_cercano_T40": 0, "CLUES_N2_10_T40": 0, "CLUES_N2_20_T40": 0, "CLUES_N2_40_T40": 0, "CLUES_N2_60_T40": 0, "tiempo_promedio_clues_N2_mas_cercano_T40": 0, "id_clues_N2_mas_cercano_T40": 0, "CLUES_N3_10_T40": 0, "CLUES_N3_20_T40": 0, "CLUES_N3_40_T40": 0, "CLUES_N3_60_T40": 0, "tiempo_promedio_clues_N3_mas_cercano_T40": 0, "id_clues_N3_mas_cercano_T40": 0, "POB1_T60": 166822, "POB42_T60": 86531, "POB84_T60": 79816, "POB17_T60": 159823, "POB18_T60": 154673, "POB19_T60": 135214, "POB20_T60": 126714, "POB21_T60": 118031, "POB22_T60": 99087, "POB23_T60": 23572, "POB24_T60": 16301, "POB25_T60": 10734, "SALUD1_T60": 117098, "SALUD2_T60": 49101, "SALUD3_T60": 65008, "SALUD4_T60": 6723, "SALUD5_T60": 42041, "SALUD6_T60": 1049, "SALUD7_T60": 1742, "SALUD8_T60": 731, "SALUD9_T60": 270, "SALUD10_T60": 569, "CLUES_N1_10_T60": 0, "CLUES_N1_20_T60": 0, "CLUES_N1_40_T60": 0, "CLUES_N1_60_T60": 0, "tiempo_promedio_clues_N1_mas_cercano_T60": 0, "id_clues_N1_mas_cercano_T60": 0, "CLUES_N2_10_T60": 0, "CLUES_N2_20_T60": 0, "CLUES_N2_40_T60": 0, "CLUES_N2_60_T60": 0, "tiempo_promedio_clues_N2_mas_cercano_T60": 0, "id_clues_N2_mas_cercano_T60": 0, "CLUES_N3_10_T60": 0, "CLUES_N3_20_T60": 0, "CLUES_N3_40_T60": 0, "CLUES_N3_60_T60": 0, "tiempo_promedio_clues_N3_mas_cercano_T60": 0, "id_clues_N3_mas_cercano_T60": 0 }, "geometry": { "type": "Point", "coordinates": [ -98.77607, 20.078052 ] } },
{ "type": "Feature", "properties": { "CLUES": "HGIMB000344", "CLAVE.DE.LA.INSTITUCION": "IMB", "NOMBRE.DE.LA.INSTITUCION": "SERVICIOS DE SALUD IMSS BIENESTAR ", "CLAVE.DE.LA.ENTIDAD": "13", "ENTIDAD": "HIDALGO", "CLAVE.DEL.MUNICIPIO": "008", "MUNICIPIO": "APAN", "CLAVE.DE.LA.LOCALIDAD": "0005", "LOCALIDAD": "CHIMALPA TLALAYOTE", "CLAVE.DE.LA.JURISDICCION": "10", "JURISDICCION": "APAN", "CLAVE.DEL.TIPO.ESTABLECIMIENTO": "1", "NOMBRE.TIPO.ESTABLECIMIENTO": "DE CONSULTA EXTERNA", "CLAVE.DE.TIPOLOGIA": "A", "NOMBRE.DE.TIPOLOGIA": "RURAL DE 01 NÚCLEO BÁSICO", "CLAVE.DE.SUBTIPOLOGIA": "99", "NOMBRE.DE.SUBTIPOLOGIA": "NO ESPECIFICADO", "NOMBRE.DE.LA.UNIDAD": "CHIMALPA TLALAYOTE", "NOMBRE.COMERCIAL": "CHIMALPA TLALAYOTE", "CLAVE.TIPO.DE.VIALIDAD": "3", "TIPO.DE.VIALIDAD": "AVENIDA", "VIALIDAD": "BENITO JUÁREZ", "NUMERO.EXTERIOR": "SIN NÚMERO", "NUMERO.INTERIOR": "SIN NUMERO", "CLAVE.TIPO.DE.ASENTAMIENTO": "7", "TIPO.DE.ASENTAMIENTO": "COLONIA", "ASENTAMIENTO": "CENTRO", "CODIGO.POSTAL": "43920", "OBSERVACIONES.DE.LA.DIRECCION": "AV. BENITO JUÁREZ S/N", "CLAVE.ESTATUS.DE.OPERACION": "1", "ESTATUS.DE.OPERACION": "EN OPERACION", "RFC.DEL.ESTABLECIMIENTO": "SSH9611185F9", "TELEFONO.1.DEL.ESTABLECIMIENTO": "0000000000", "EXTENSION.TELEFONICA.1.DEL.ESTABLECIMIENTO": null, "TELEFONO.2.DEL.ESTABLECIMIENTO": "0000000000", "EXTENSION.TELEFONICA.2.DEL.ESTABLECIMIENTO": null, "FECHA.DE.CONSTRUCCION": null, "FECHA.DE.INICIO.DE.OPERACION": "01/01/1989", "CLAVE.UNIDAD.MOVIL.MARCA": null, "UNIDAD.MOVIL.MARCA": null, "UNIDAD.MOVIL.MARCA.ESPECIFICA": null, "UNIDAD.MOVIL.MODELO": null, "CLAVE.UNIDAD.MOVIL.PROGRAMA": null, "UNIDAD.MOVIL.PROGRAMA": null, "CLAVE.UNIDAD.MOVIL.TIPO": null, "UNIDAD.MOVIL.TIPO": null, "CLAVE.UNIDAD.MOVIL.TIPOLOGIA": null, "UNIDAD.MOVIL.TIPOLOGIA": null, "CLAVE.DE.LA.INS.ADM": "IMB", "NOMBRE.DE.LA.INS.ADM": "SERVICIOS DE SALUD IMSS BIENESTAR ", "CLAVE.NIVEL.ATENCION": "1", "NIVEL.ATENCION": "PRIMER NIVEL", "CLAVE.ESTRATO.UNIDAD": "2", "ESTRATO.UNIDAD": "URBANO", "CLAVE.TIPO.OBRA": "5", "TIPO.OBRA": "OTRA", "CLAVE.PROPIEDAD.DEL.INMUEBLE": "1", "PROPIEDAD.DEL.INMUEBLE": "PROPIO", "CLAVE.ULTIMO.MOVIMIENTO": "A", "ULTIMO.MOVIMIENTO": "ALTA", "FECHA.ULTIMO.MOVIMIENTO": "18/07/2024", "COMENTARIOS.DE.LA.VALIDACION": "ESTABLECIMIENTO QUE PERTENECÍA A SECRETARIA DE SALUD DEL ESTADO, SE TRANSFIERE A SERVICIOS DE SALUD IMSS BIENESTAR.", "CLAVE.MOTIVO.BAJA": null, "MOTIVO.BAJA": null, "FECHA.EFECTIVA.DE.BAJA": null, "archivo_origen": "1er_N_Público", "Conteo_N1_T10": 1, "Conteo_N1_T20": 1, "Conteo_N1_T40": 2, "Conteo_N1_T60": 2, "Conteo_N2_T10": 0, "Conteo_N2_T20": 4, "Conteo_N2_T40": 4, "Conteo_N2_T60": 4, "Conteo_N3_T10": 0, "Conteo_N3_T20": 0, "Conteo_N3_T40": 0, "Conteo_N3_T60": 0, "CLUES_N1_mas_cercano": "HGIMB000361", "Tiempo_promedio_CLUES_N1_mas_cercano": 8.7669147526837108, "CLUES_N2_mas_cercano": "HGIMB004800", "Tiempo_promedio_CLUES_N2_mas_cercano": 10.2199189011441, "CLUES_N3_mas_cercano": "HGIMB002304", "Tiempo_promedio_CLUES_N3_mas_cercano": 105.61503989710199, "POB1_T10": 35193.529394088298, "POB42_T10": 18613.7730248997, "POB84_T10": 16513.893831968999, "POB17_T10": 33706.9267253207, "POB18_T10": 32571.432728824399, "POB19_T10": 28355.652009849298, "POB20_T10": 26594.632796299102, "POB21_T10": 24754.5068207451, "POB22_T10": 20657.614048928299, "POB23_T10": 4704.7784775620503, "POB24_T10": 3248.81551152676, "POB25_T10": 2079.0571106110201, "SALUD1_T10": 24808.118440779701, "SALUD2_T10": 10294.548416088999, "SALUD3_T10": 12027.6780533089, "SALUD4_T10": 1887.9890495869199, "SALUD5_T10": 9819.9456373089306, "SALUD6_T10": 548.68547723181302, "SALUD7_T10": 341.36770026359699, "SALUD8_T10": 228, "SALUD9_T10": 103.322564983812, "SALUD10_T10": 137.299826547355, "CLUES_N1_10_T10": 0, "CLUES_N1_20_T10": 0, "CLUES_N1_40_T10": 0, "CLUES_N1_60_T10": 0, "tiempo_promedio_clues_N1_mas_cercano_T10": 0, "id_clues_N1_mas_cercano_T10": 0, "CLUES_N2_10_T10": 0, "CLUES_N2_20_T10": 0, "CLUES_N2_40_T10": 0, "CLUES_N2_60_T10": 0, "tiempo_promedio_clues_N2_mas_cercano_T10": 0, "id_clues_N2_mas_cercano_T10": 0, "CLUES_N3_10_T10": 0, "CLUES_N3_20_T10": 0, "CLUES_N3_40_T10": 0, "CLUES_N3_60_T10": 0, "tiempo_promedio_clues_N3_mas_cercano_T10": 0, "id_clues_N3_mas_cercano_T10": 0, "POB1_T20": 61823.9272215655, "POB42_T20": 32233.300367802301, "POB84_T20": 29477.568844871799, "POB17_T20": 59082.693526319199, "POB18_T20": 57041.749665517098, "POB19_T20": 49471.058046890597, "POB20_T20": 46256.524188336698, "POB21_T20": 42965.823844480197, "POB22_T20": 35708.255710433397, "POB23_T20": 8106.2626375668397, "POB24_T20": 5618.5014457837196, "POB25_T20": 3698.5350315352998, "SALUD1_T20": 44641.966861354696, "SALUD2_T20": 17027.1320107192, "SALUD3_T20": 20527.903470888901, "SALUD4_T20": 2523.1254522344798, "SALUD5_T20": 20119.971526545101, "SALUD6_T20": 723.42693646942303, "SALUD7_T20": 483.52840299658197, "SALUD8_T20": 271.502450176737, "SALUD9_T20": 129.734820115448, "SALUD10_T20": 286.58908079538497, "CLUES_N1_10_T20": 0, "CLUES_N1_20_T20": 0, "CLUES_N1_40_T20": 0, "CLUES_N1_60_T20": 0, "tiempo_promedio_clues_N1_mas_cercano_T20": 0, "id_clues_N1_mas_cercano_T20": 0, "CLUES_N2_10_T20": 0, "CLUES_N2_20_T20": 0, "CLUES_N2_40_T20": 0, "CLUES_N2_60_T20": 0, "tiempo_promedio_clues_N2_mas_cercano_T20": 0, "id_clues_N2_mas_cercano_T20": 0, "CLUES_N3_10_T20": 0, "CLUES_N3_20_T20": 0, "CLUES_N3_40_T20": 0, "CLUES_N3_60_T20": 0, "tiempo_promedio_clues_N3_mas_cercano_T20": 0, "id_clues_N3_mas_cercano_T20": 0, "POB1_T40": 142404.715084822, "POB42_T40": 73994.465692985803, "POB84_T40": 68095.325505021101, "POB17_T40": 136480.40907260799, "POB18_T40": 132102.28738160001, "POB19_T40": 115647.241160912, "POB20_T40": 108442.56172740299, "POB21_T40": 101012.564012737, "POB22_T40": 84812.4701158885, "POB23_T40": 20077.3019461855, "POB24_T40": 13818.893390020099, "POB25_T40": 9060.0493491185898, "SALUD1_T40": 102828.985425156, "SALUD2_T40": 39136.097460623001, "SALUD3_T40": 59509.7178147784, "SALUD4_T40": 5647.7150184606098, "SALUD5_T40": 35100.021900343498, "SALUD6_T40": 952.05698810833303, "SALUD7_T40": 1234.83324890982, "SALUD8_T40": 577.08312227454098, "SALUD9_T40": 247, "SALUD10_T40": 529.84138708417402, "CLUES_N1_10_T40": 0, "CLUES_N1_20_T40": 0, "CLUES_N1_40_T40": 0, "CLUES_N1_60_T40": 0, "tiempo_promedio_clues_N1_mas_cercano_T40": 0, "id_clues_N1_mas_cercano_T40": 0, "CLUES_N2_10_T40": 0, "CLUES_N2_20_T40": 0, "CLUES_N2_40_T40": 0, "CLUES_N2_60_T40": 0, "tiempo_promedio_clues_N2_mas_cercano_T40": 0, "id_clues_N2_mas_cercano_T40": 0, "CLUES_N3_10_T40": 0, "CLUES_N3_20_T40": 0, "CLUES_N3_40_T40": 0, "CLUES_N3_60_T40": 0, "tiempo_promedio_clues_N3_mas_cercano_T40": 0, "id_clues_N3_mas_cercano_T40": 0, "POB1_T60": 166822, "POB42_T60": 86531, "POB84_T60": 79816, "POB17_T60": 159823, "POB18_T60": 154673, "POB19_T60": 135214, "POB20_T60": 126714, "POB21_T60": 118031, "POB22_T60": 99087, "POB23_T60": 23572, "POB24_T60": 16301, "POB25_T60": 10734, "SALUD1_T60": 117098, "SALUD2_T60": 49101, "SALUD3_T60": 65008, "SALUD4_T60": 6723, "SALUD5_T60": 42041, "SALUD6_T60": 1049, "SALUD7_T60": 1742, "SALUD8_T60": 731, "SALUD9_T60": 270, "SALUD10_T60": 569, "CLUES_N1_10_T60": 0, "CLUES_N1_20_T60": 0, "CLUES_N1_40_T60": 0, "CLUES_N1_60_T60": 0, "tiempo_promedio_clues_N1_mas_cercano_T60": 0, "id_clues_N1_mas_cercano_T60": 0, "CLUES_N2_10_T60": 0, "CLUES_N2_20_T60": 0, "CLUES_N2_40_T60": 0, "CLUES_N2_60_T60": 0, "tiempo_promedio_clues_N2_mas_cercano_T60": 0, "id_clues_N2_mas_cercano_T60": 0, "CLUES_N3_10_T60": 0, "CLUES_N3_20_T60": 0, "CLUES_N3_40_T60": 0, "CLUES_N3_60_T60": 0, "tiempo_promedio_clues_N3_mas_cercano_T60": 0, "id_clues_N3_mas_cercano_T60": 0 }, "geometry": { "type": "Point", "coordinates": [ -98.511184, 19.665757 ] } },
{ "type": "Feature", "properties": { "CLUES": "HGIMB000356", "CLAVE.DE.LA.INSTITUCION": "IMB", "NOMBRE.DE.LA.INSTITUCION": "SERVICIOS DE SALUD IMSS BIENESTAR ", "CLAVE.DE.LA.ENTIDAD": "13", "ENTIDAD": "HIDALGO", "CLAVE.DEL.MUNICIPIO": "008", "MUNICIPIO": "APAN", "CLAVE.DE.LA.LOCALIDAD": "0007", "LOCALIDAD": "SAN JOSE JIQUILPAN", "CLAVE.DE.LA.JURISDICCION": "10", "JURISDICCION": "APAN", "CLAVE.DEL.TIPO.ESTABLECIMIENTO": "1", "NOMBRE.TIPO.ESTABLECIMIENTO": "DE CONSULTA EXTERNA", "CLAVE.DE.TIPOLOGIA": "A", "NOMBRE.DE.TIPOLOGIA": "RURAL DE 01 NÚCLEO BÁSICO", "CLAVE.DE.SUBTIPOLOGIA": "99", "NOMBRE.DE.SUBTIPOLOGIA": "NO ESPECIFICADO", "NOMBRE.DE.LA.UNIDAD": "SAN JOSÉ JIQUILPAN", "NOMBRE.COMERCIAL": "SAN JOSÉ JIQUILPAN", "CLAVE.TIPO.DE.VIALIDAD": "5", "TIPO.DE.VIALIDAD": "CALLE", "VIALIDAD": "NICOLAS BRAVO", "NUMERO.EXTERIOR": "SIN NÚMERO", "NUMERO.INTERIOR": "SIN NUMERO", "CLAVE.TIPO.DE.ASENTAMIENTO": "7", "TIPO.DE.ASENTAMIENTO": "COLONIA", "ASENTAMIENTO": "CENTRO", "CODIGO.POSTAL": "43923", "OBSERVACIONES.DE.LA.DIRECCION": "NICOLAS BRAVO S/N", "CLAVE.ESTATUS.DE.OPERACION": "1", "ESTATUS.DE.OPERACION": "EN OPERACION", "RFC.DEL.ESTABLECIMIENTO": "SSH9611185F9", "TELEFONO.1.DEL.ESTABLECIMIENTO": "0000000000", "EXTENSION.TELEFONICA.1.DEL.ESTABLECIMIENTO": null, "TELEFONO.2.DEL.ESTABLECIMIENTO": "0000000000", "EXTENSION.TELEFONICA.2.DEL.ESTABLECIMIENTO": null, "FECHA.DE.CONSTRUCCION": null, "FECHA.DE.INICIO.DE.OPERACION": "01/01/1994", "CLAVE.UNIDAD.MOVIL.MARCA": null, "UNIDAD.MOVIL.MARCA": null, "UNIDAD.MOVIL.MARCA.ESPECIFICA": null, "UNIDAD.MOVIL.MODELO": null, "CLAVE.UNIDAD.MOVIL.PROGRAMA": null, "UNIDAD.MOVIL.PROGRAMA": null, "CLAVE.UNIDAD.MOVIL.TIPO": null, "UNIDAD.MOVIL.TIPO": null, "CLAVE.UNIDAD.MOVIL.TIPOLOGIA": null, "UNIDAD.MOVIL.TIPOLOGIA": null, "CLAVE.DE.LA.INS.ADM": "IMB", "NOMBRE.DE.LA.INS.ADM": "SERVICIOS DE SALUD IMSS BIENESTAR ", "CLAVE.NIVEL.ATENCION": "1", "NIVEL.ATENCION": "PRIMER NIVEL", "CLAVE.ESTRATO.UNIDAD": "1", "ESTRATO.UNIDAD": "RURAL", "CLAVE.TIPO.OBRA": "5", "TIPO.OBRA": "OTRA", "CLAVE.PROPIEDAD.DEL.INMUEBLE": "1", "PROPIEDAD.DEL.INMUEBLE": "PROPIO", "CLAVE.ULTIMO.MOVIMIENTO": "A", "ULTIMO.MOVIMIENTO": "ALTA", "FECHA.ULTIMO.MOVIMIENTO": "18/07/2024", "COMENTARIOS.DE.LA.VALIDACION": "ESTABLECIMIENTO QUE PERTENECÍA A SECRETARIA DE SALUD DEL ESTADO, SE TRANSFIERE A SERVICIOS DE SALUD IMSS BIENESTAR.", "CLAVE.MOTIVO.BAJA": null, "MOTIVO.BAJA": null, "FECHA.EFECTIVA.DE.BAJA": null, "archivo_origen": "1er_N_Público", "Conteo_N1_T10": 0, "Conteo_N1_T20": 0, "Conteo_N1_T40": 1, "Conteo_N1_T60": 2, "Conteo_N2_T10": 0, "Conteo_N2_T20": 0, "Conteo_N2_T40": 4, "Conteo_N2_T60": 4, "Conteo_N3_T10": 0, "Conteo_N3_T20": 0, "Conteo_N3_T40": 0, "Conteo_N3_T60": 0, "CLUES_N1_mas_cercano": "HGIMB000344", "Tiempo_promedio_CLUES_N1_mas_cercano": 36.3601229384916, "CLUES_N2_mas_cercano": "HGSMP000905", "Tiempo_promedio_CLUES_N2_mas_cercano": 25.945118030916898, "CLUES_N3_mas_cercano": "HGIMB002304", "Tiempo_promedio_CLUES_N3_mas_cercano": 123.83317556037601, "POB1_T10": 35193.529394088298, "POB42_T10": 18613.7730248997, "POB84_T10": 16513.893831968999, "POB17_T10": 33706.9267253207, "POB18_T10": 32571.432728824399, "POB19_T10": 28355.652009849298, "POB20_T10": 26594.632796299102, "POB21_T10": 24754.5068207451, "POB22_T10": 20657.614048928299, "POB23_T10": 4704.7784775620503, "POB24_T10": 3248.81551152676, "POB25_T10": 2079.0571106110201, "SALUD1_T10": 24808.118440779701, "SALUD2_T10": 10294.548416088999, "SALUD3_T10": 12027.6780533089, "SALUD4_T10": 1887.9890495869199, "SALUD5_T10": 9819.9456373089306, "SALUD6_T10": 548.68547723181302, "SALUD7_T10": 341.36770026359699, "SALUD8_T10": 228, "SALUD9_T10": 103.322564983812, "SALUD10_T10": 137.299826547355, "CLUES_N1_10_T10": 0, "CLUES_N1_20_T10": 0, "CLUES_N1_40_T10": 0, "CLUES_N1_60_T10": 0, "tiempo_promedio_clues_N1_mas_cercano_T10": 0, "id_clues_N1_mas_cercano_T10": 0, "CLUES_N2_10_T10": 0, "CLUES_N2_20_T10": 0, "CLUES_N2_40_T10": 0, "CLUES_N2_60_T10": 0, "tiempo_promedio_clues_N2_mas_cercano_T10": 0, "id_clues_N2_mas_cercano_T10": 0, "CLUES_N3_10_T10": 0, "CLUES_N3_20_T10": 0, "CLUES_N3_40_T10": 0, "CLUES_N3_60_T10": 0, "tiempo_promedio_clues_N3_mas_cercano_T10": 0, "id_clues_N3_mas_cercano_T10": 0, "POB1_T20": 61823.9272215655, "POB42_T20": 32233.300367802301, "POB84_T20": 29477.568844871799, "POB17_T20": 59082.693526319199, "POB18_T20": 57041.749665517098, "POB19_T20": 49471.058046890597, "POB20_T20": 46256.524188336698, "POB21_T20": 42965.823844480197, "POB22_T20": 35708.255710433397, "POB23_T20": 8106.2626375668397, "POB24_T20": 5618.5014457837196, "POB25_T20": 3698.5350315352998, "SALUD1_T20": 44641.966861354696, "SALUD2_T20": 17027.1320107192, "SALUD3_T20": 20527.903470888901, "SALUD4_T20": 2523.1254522344798, "SALUD5_T20": 20119.971526545101, "SALUD6_T20": 723.42693646942303, "SALUD7_T20": 483.52840299658197, "SALUD8_T20": 271.502450176737, "SALUD9_T20": 129.734820115448, "SALUD10_T20": 286.58908079538497, "CLUES_N1_10_T20": 0, "CLUES_N1_20_T20": 0, "CLUES_N1_40_T20": 0, "CLUES_N1_60_T20": 0, "tiempo_promedio_clues_N1_mas_cercano_T20": 0, "id_clues_N1_mas_cercano_T20": 0, "CLUES_N2_10_T20": 0, "CLUES_N2_20_T20": 0, "CLUES_N2_40_T20": 0, "CLUES_N2_60_T20": 0, "tiempo_promedio_clues_N2_mas_cercano_T20": 0, "id_clues_N2_mas_cercano_T20": 0, "CLUES_N3_10_T20": 0, "CLUES_N3_20_T20": 0, "CLUES_N3_40_T20": 0, "CLUES_N3_60_T20": 0, "tiempo_promedio_clues_N3_mas_cercano_T20": 0, "id_clues_N3_mas_cercano_T20": 0, "POB1_T40": 142404.715084822, "POB42_T40": 73994.465692985803, "POB84_T40": 68095.325505021101, "POB17_T40": 136480.40907260799, "POB18_T40": 132102.28738160001, "POB19_T40": 115647.241160912, "POB20_T40": 108442.56172740299, "POB21_T40": 101012.564012737, "POB22_T40": 84812.4701158885, "POB23_T40": 20077.3019461855, "POB24_T40": 13818.893390020099, "POB25_T40": 9060.0493491185898, "SALUD1_T40": 102828.985425156, "SALUD2_T40": 39136.097460623001, "SALUD3_T40": 59509.7178147784, "SALUD4_T40": 5647.7150184606098, "SALUD5_T40": 35100.021900343498, "SALUD6_T40": 952.05698810833303, "SALUD7_T40": 1234.83324890982, "SALUD8_T40": 577.08312227454098, "SALUD9_T40": 247, "SALUD10_T40": 529.84138708417402, "CLUES_N1_10_T40": 0, "CLUES_N1_20_T40": 0, "CLUES_N1_40_T40": 0, "CLUES_N1_60_T40": 0, "tiempo_promedio_clues_N1_mas_cercano_T40": 0, "id_clues_N1_mas_cercano_T40": 0, "CLUES_N2_10_T40": 0, "CLUES_N2_20_T40": 0, "CLUES_N2_40_T40": 0, "CLUES_N2_60_T40": 0, "tiempo_promedio_clues_N2_mas_cercano_T40": 0, "id_clues_N2_mas_cercano_T40": 0, "CLUES_N3_10_T40": 0, "CLUES_N3_20_T40": 0, "CLUES_N3_40_T40": 0, "CLUES_N3_60_T40": 0, "tiempo_promedio_clues_N3_mas_cercano_T40": 0, "id_clues_N3_mas_cercano_T40": 0, "POB1_T60": 166822, "POB42_T60": 86531, "POB84_T60": 79816, "POB17_T60": 159823, "POB18_T60": 154673, "POB19_T60": 135214, "POB20_T60": 126714, "POB21_T60": 118031, "POB22_T60": 99087, "POB23_T60": 23572, "POB24_T60": 16301, "POB25_T60": 10734, "SALUD1_T60": 117098, "SALUD2_T60": 49101, "SALUD3_T60": 65008, "SALUD4_T60": 6723, "SALUD5_T60": 42041, "SALUD6_T60": 1049, "SALUD7_T60": 1742, "SALUD8_T60": 731, "SALUD9_T60": 270, "SALUD10_T60": 569, "CLUES_N1_10_T60": 0, "CLUES_N1_20_T60": 0, "CLUES_N1_40_T60": 0, "CLUES_N1_60_T60": 0, "tiempo_promedio_clues_N1_mas_cercano_T60": 0, "id_clues_N1_mas_cercano_T60": 0, "CLUES_N2_10_T60": 0, "CLUES_N2_20_T60": 0, "CLUES_N2_40_T60": 0, "CLUES_N2_60_T60": 0, "tiempo_promedio_clues_N2_mas_cercano_T60": 0, "id_clues_N2_mas_cercano_T60": 0, "CLUES_N3_10_T60": 0, "CLUES_N3_20_T60": 0, "CLUES_N3_40_T60": 0, "CLUES_N3_60_T60": 0, "tiempo_promedio_clues_N3_mas_cercano_T60": 0, "id_clues_N3_mas_cercano_T60": 0 }, "geometry": { "type": "Point", "coordinates": [ -98.385085, 19.625691 ] } },
{ "type": "Feature", "properties": { "CLUES": "HGIMB000361", "CLAVE.DE.LA.INSTITUCION": "IMB", "NOMBRE.DE.LA.INSTITUCION": "SERVICIOS DE SALUD IMSS BIENESTAR ", "CLAVE.DE.LA.ENTIDAD": "13", "ENTIDAD": "HIDALGO", "CLAVE.DEL.MUNICIPIO": "008", "MUNICIPIO": "APAN", "CLAVE.DE.LA.LOCALIDAD": "0020", "LOCALIDAD": "ZOTOLUCA (VELOZ)", "CLAVE.DE.LA.JURISDICCION": "10", "JURISDICCION": "APAN", "CLAVE.DEL.TIPO.ESTABLECIMIENTO": "1", "NOMBRE.TIPO.ESTABLECIMIENTO": "DE CONSULTA EXTERNA", "CLAVE.DE.TIPOLOGIA": "A", "NOMBRE.DE.TIPOLOGIA": "RURAL DE 01 NÚCLEO BÁSICO", "CLAVE.DE.SUBTIPOLOGIA": "99", "NOMBRE.DE.SUBTIPOLOGIA": "NO ESPECIFICADO", "NOMBRE.DE.LA.UNIDAD": "ZOTOLUCA VELOZ", "NOMBRE.COMERCIAL": "ZOTOLUCA VELOZ", "CLAVE.TIPO.DE.VIALIDAD": "5", "TIPO.DE.VIALIDAD": "CALLE", "VIALIDAD": "ADOLFO LOPEZ MATEOS", "NUMERO.EXTERIOR": "SIN NÚMERO", "NUMERO.INTERIOR": "SIN NUMERO", "CLAVE.TIPO.DE.ASENTAMIENTO": "7", "TIPO.DE.ASENTAMIENTO": "COLONIA", "ASENTAMIENTO": "CENTRO", "CODIGO.POSTAL": "43900", "OBSERVACIONES.DE.LA.DIRECCION": "AV. ADOLFO LÓPEZ MATEOS S/N", "CLAVE.ESTATUS.DE.OPERACION": "1", "ESTATUS.DE.OPERACION": "EN OPERACION", "RFC.DEL.ESTABLECIMIENTO": "SSH9611185F9", "TELEFONO.1.DEL.ESTABLECIMIENTO": "0000000000", "EXTENSION.TELEFONICA.1.DEL.ESTABLECIMIENTO": null, "TELEFONO.2.DEL.ESTABLECIMIENTO": "0000000000", "EXTENSION.TELEFONICA.2.DEL.ESTABLECIMIENTO": null, "FECHA.DE.CONSTRUCCION": null, "FECHA.DE.INICIO.DE.OPERACION": "01/01/1994", "CLAVE.UNIDAD.MOVIL.MARCA": null, "UNIDAD.MOVIL.MARCA": null, "UNIDAD.MOVIL.MARCA.ESPECIFICA": null, "UNIDAD.MOVIL.MODELO": null, "CLAVE.UNIDAD.MOVIL.PROGRAMA": null, "UNIDAD.MOVIL.PROGRAMA": null, "CLAVE.UNIDAD.MOVIL.TIPO": null, "UNIDAD.MOVIL.TIPO": null, "CLAVE.UNIDAD.MOVIL.TIPOLOGIA": null, "UNIDAD.MOVIL.TIPOLOGIA": null, "CLAVE.DE.LA.INS.ADM": "IMB", "NOMBRE.DE.LA.INS.ADM": "SERVICIOS DE SALUD IMSS BIENESTAR ", "CLAVE.NIVEL.ATENCION": "1", "NIVEL.ATENCION": "PRIMER NIVEL", "CLAVE.ESTRATO.UNIDAD": "1", "ESTRATO.UNIDAD": "RURAL", "CLAVE.TIPO.OBRA": "5", "TIPO.OBRA": "OTRA", "CLAVE.PROPIEDAD.DEL.INMUEBLE": "1", "PROPIEDAD.DEL.INMUEBLE": "PROPIO", "CLAVE.ULTIMO.MOVIMIENTO": "A", "ULTIMO.MOVIMIENTO": "ALTA", "FECHA.ULTIMO.MOVIMIENTO": "18/07/2024", "COMENTARIOS.DE.LA.VALIDACION": "ESTABLECIMIENTO QUE PERTENECÍA A SECRETARIA DE SALUD DEL ESTADO, SE TRANSFIERE A SERVICIOS DE SALUD IMSS BIENESTAR.", "CLAVE.MOTIVO.BAJA": null, "MOTIVO.BAJA": null, "FECHA.EFECTIVA.DE.BAJA": null, "archivo_origen": "1er_N_Público", "Conteo_N1_T10": 1, "Conteo_N1_T20": 1, "Conteo_N1_T40": 1, "Conteo_N1_T60": 2, "Conteo_N2_T10": 0, "Conteo_N2_T20": 4, "Conteo_N2_T40": 4, "Conteo_N2_T60": 4, "Conteo_N3_T10": 0, "Conteo_N3_T20": 0, "Conteo_N3_T40": 0, "Conteo_N3_T60": 0, "CLUES_N1_mas_cercano": "HGIMB000344", "Tiempo_promedio_CLUES_N1_mas_cercano": 8.7669147526837108, "CLUES_N2_mas_cercano": "HGIMB004800", "Tiempo_promedio_CLUES_N2_mas_cercano": 18.528711812942699, "CLUES_N3_mas_cercano": "HGIMB002304", "Tiempo_promedio_CLUES_N3_mas_cercano": 113.923832808901, "POB1_T10": 35193.529394088298, "POB42_T10": 18613.7730248997, "POB84_T10": 16513.893831968999, "POB17_T10": 33706.9267253207, "POB18_T10": 32571.432728824399, "POB19_T10": 28355.652009849298, "POB20_T10": 26594.632796299102, "POB21_T10": 24754.5068207451, "POB22_T10": 20657.614048928299, "POB23_T10": 4704.7784775620503, "POB24_T10": 3248.81551152676, "POB25_T10": 2079.0571106110201, "SALUD1_T10": 24808.118440779701, "SALUD2_T10": 10294.548416088999, "SALUD3_T10": 12027.6780533089, "SALUD4_T10": 1887.9890495869199, "SALUD5_T10": 9819.9456373089306, "SALUD6_T10": 548.68547723181302, "SALUD7_T10": 341.36770026359699, "SALUD8_T10": 228, "SALUD9_T10": 103.322564983812, "SALUD10_T10": 137.299826547355, "CLUES_N1_10_T10": 0, "CLUES_N1_20_T10": 0, "CLUES_N1_40_T10": 0, "CLUES_N1_60_T10": 0, "tiempo_promedio_clues_N1_mas_cercano_T10": 0, "id_clues_N1_mas_cercano_T10": 0, "CLUES_N2_10_T10": 0, "CLUES_N2_20_T10": 0, "CLUES_N2_40_T10": 0, "CLUES_N2_60_T10": 0, "tiempo_promedio_clues_N2_mas_cercano_T10": 0, "id_clues_N2_mas_cercano_T10": 0, "CLUES_N3_10_T10": 0, "CLUES_N3_20_T10": 0, "CLUES_N3_40_T10": 0, "CLUES_N3_60_T10": 0, "tiempo_promedio_clues_N3_mas_cercano_T10": 0, "id_clues_N3_mas_cercano_T10": 0, "POB1_T20": 61823.9272215655, "POB42_T20": 32233.300367802301, "POB84_T20": 29477.568844871799, "POB17_T20": 59082.693526319199, "POB18_T20": 57041.749665517098, "POB19_T20": 49471.058046890597, "POB20_T20": 46256.524188336698, "POB21_T20": 42965.823844480197, "POB22_T20": 35708.255710433397, "POB23_T20": 8106.2626375668397, "POB24_T20": 5618.5014457837196, "POB25_T20": 3698.5350315352998, "SALUD1_T20": 44641.966861354696, "SALUD2_T20": 17027.1320107192, "SALUD3_T20": 20527.903470888901, "SALUD4_T20": 2523.1254522344798, "SALUD5_T20": 20119.971526545101, "SALUD6_T20": 723.42693646942303, "SALUD7_T20": 483.52840299658197, "SALUD8_T20": 271.502450176737, "SALUD9_T20": 129.734820115448, "SALUD10_T20": 286.58908079538497, "CLUES_N1_10_T20": 0, "CLUES_N1_20_T20": 0, "CLUES_N1_40_T20": 0, "CLUES_N1_60_T20": 0, "tiempo_promedio_clues_N1_mas_cercano_T20": 0, "id_clues_N1_mas_cercano_T20": 0, "CLUES_N2_10_T20": 0, "CLUES_N2_20_T20": 0, "CLUES_N2_40_T20": 0, "CLUES_N2_60_T20": 0, "tiempo_promedio_clues_N2_mas_cercano_T20": 0, "id_clues_N2_mas_cercano_T20": 0, "CLUES_N3_10_T20": 0, "CLUES_N3_20_T20": 0, "CLUES_N3_40_T20": 0, "CLUES_N3_60_T20": 0, "tiempo_promedio_clues_N3_mas_cercano_T20": 0, "id_clues_N3_mas_cercano_T20": 0, "POB1_T40": 142404.715084822, "POB42_T40": 73994.465692985803, "POB84_T40": 68095.325505021101, "POB17_T40": 136480.40907260799, "POB18_T40": 132102.28738160001, "POB19_T40": 115647.241160912, "POB20_T40": 108442.56172740299, "POB21_T40": 101012.564012737, "POB22_T40": 84812.4701158885, "POB23_T40": 20077.3019461855, "POB24_T40": 13818.893390020099, "POB25_T40": 9060.0493491185898, "SALUD1_T40": 102828.985425156, "SALUD2_T40": 39136.097460623001, "SALUD3_T40": 59509.7178147784, "SALUD4_T40": 5647.7150184606098, "SALUD5_T40": 35100.021900343498, "SALUD6_T40": 952.05698810833303, "SALUD7_T40": 1234.83324890982, "SALUD8_T40": 577.08312227454098, "SALUD9_T40": 247, "SALUD10_T40": 529.84138708417402, "CLUES_N1_10_T40": 0, "CLUES_N1_20_T40": 0, "CLUES_N1_40_T40": 0, "CLUES_N1_60_T40": 0, "tiempo_promedio_clues_N1_mas_cercano_T40": 0, "id_clues_N1_mas_cercano_T40": 0, "CLUES_N2_10_T40": 0, "CLUES_N2_20_T40": 0, "CLUES_N2_40_T40": 0, "CLUES_N2_60_T40": 0, "tiempo_promedio_clues_N2_mas_cercano_T40": 0, "id_clues_N2_mas_cercano_T40": 0, "CLUES_N3_10_T40": 0, "CLUES_N3_20_T40": 0, "CLUES_N3_40_T40": 0, "CLUES_N3_60_T40": 0, "tiempo_promedio_clues_N3_mas_cercano_T40": 0, "id_clues_N3_mas_cercano_T40": 0, "POB1_T60": 166822, "POB42_T60": 86531, "POB84_T60": 79816, "POB17_T60": 159823, "POB18_T60": 154673, "POB19_T60": 135214, "POB20_T60": 126714, "POB21_T60": 118031, "POB22_T60": 99087, "POB23_T60": 23572, "POB24_T60": 16301, "POB25_T60": 10734, "SALUD1_T60": 117098, "SALUD2_T60": 49101, "SALUD3_T60": 65008, "SALUD4_T60": 6723, "SALUD5_T60": 42041, "SALUD6_T60": 1049, "SALUD7_T60": 1742, "SALUD8_T60": 731, "SALUD9_T60": 270, "SALUD10_T60": 569, "CLUES_N1_10_T60": 0, "CLUES_N1_20_T60": 0, "CLUES_N1_40_T60": 0, "CLUES_N1_60_T60": 0, "tiempo_promedio_clues_N1_mas_cercano_T60": 0, "id_clues_N1_mas_cercano_T60": 0, "CLUES_N2_10_T60": 0, "CLUES_N2_20_T60": 0, "CLUES_N2_40_T60": 0, "CLUES_N2_60_T60": 0, "tiempo_promedio_clues_N2_mas_cercano_T60": 0, "id_clues_N2_mas_cercano_T60": 0, "CLUES_N3_10_T60": 0, "CLUES_N3_20_T60": 0, "CLUES_N3_40_T60": 0, "CLUES_N3_60_T60": 0, "tiempo_promedio_clues_N3_mas_cercano_T60": 0, "id_clues_N3_mas_cercano_T60": 0 }, "geometry": { "type": "Point", "coordinates": [ -98.513165, 19.611848 ] } },
{ "type": "Feature", "properties": { "CLUES": "HGIMB001790", "CLAVE.DE.LA.INSTITUCION": "IMB", "NOMBRE.DE.LA.INSTITUCION": "SERVICIOS DE SALUD IMSS BIENESTAR ", "CLAVE.DE.LA.ENTIDAD": "13", "ENTIDAD": "HIDALGO", "CLAVE.DEL.MUNICIPIO": "035", "MUNICIPIO": "METEPEC", "CLAVE.DE.LA.LOCALIDAD": "0001", "LOCALIDAD": "METEPEC", "CLAVE.DE.LA.JURISDICCION": "02", "JURISDICCION": "TULANCINGO DE BRAVO", "CLAVE.DEL.TIPO.ESTABLECIMIENTO": "1", "NOMBRE.TIPO.ESTABLECIMIENTO": "DE CONSULTA EXTERNA", "CLAVE.DE.TIPOLOGIA": "E", "NOMBRE.DE.TIPOLOGIA": "URBANO DE 02 NÚCLEOS BÁSICOS", "CLAVE.DE.SUBTIPOLOGIA": "99", "NOMBRE.DE.SUBTIPOLOGIA": "NO ESPECIFICADO", "NOMBRE.DE.LA.UNIDAD": "METEPEC", "NOMBRE.COMERCIAL": "METEPEC", "CLAVE.TIPO.DE.VIALIDAD": "3", "TIPO.DE.VIALIDAD": "AVENIDA", "VIALIDAD": "MORELOS", "NUMERO.EXTERIOR": "SIN NÚMERO", "NUMERO.INTERIOR": "SIN NUMERO", "CLAVE.TIPO.DE.ASENTAMIENTO": "7", "TIPO.DE.ASENTAMIENTO": "COLONIA", "ASENTAMIENTO": "METEPEC CENTRO", "CODIGO.POSTAL": "43400", "OBSERVACIONES.DE.LA.DIRECCION": "AVENIDA MORELOS S/N", "CLAVE.ESTATUS.DE.OPERACION": "1", "ESTATUS.DE.OPERACION": "EN OPERACION", "RFC.DEL.ESTABLECIMIENTO": "SSH9611185F9", "TELEFONO.1.DEL.ESTABLECIMIENTO": "0000000000", "EXTENSION.TELEFONICA.1.DEL.ESTABLECIMIENTO": null, "TELEFONO.2.DEL.ESTABLECIMIENTO": "0000000000", "EXTENSION.TELEFONICA.2.DEL.ESTABLECIMIENTO": null, "FECHA.DE.CONSTRUCCION": null, "FECHA.DE.INICIO.DE.OPERACION": null, "CLAVE.UNIDAD.MOVIL.MARCA": null, "UNIDAD.MOVIL.MARCA": null, "UNIDAD.MOVIL.MARCA.ESPECIFICA": null, "UNIDAD.MOVIL.MODELO": null, "CLAVE.UNIDAD.MOVIL.PROGRAMA": null, "UNIDAD.MOVIL.PROGRAMA": null, "CLAVE.UNIDAD.MOVIL.TIPO": null, "UNIDAD.MOVIL.TIPO": null, "CLAVE.UNIDAD.MOVIL.TIPOLOGIA": null, "UNIDAD.MOVIL.TIPOLOGIA": null, "CLAVE.DE.LA.INS.ADM": "IMB", "NOMBRE.DE.LA.INS.ADM": "SERVICIOS DE SALUD IMSS BIENESTAR ", "CLAVE.NIVEL.ATENCION": "1", "NIVEL.ATENCION": "PRIMER NIVEL", "CLAVE.ESTRATO.UNIDAD": "2", "ESTRATO.UNIDAD": "URBANO", "CLAVE.TIPO.OBRA": "5", "TIPO.OBRA": "OTRA", "CLAVE.PROPIEDAD.DEL.INMUEBLE": "1", "PROPIEDAD.DEL.INMUEBLE": "PROPIO", "CLAVE.ULTIMO.MOVIMIENTO": "A", "ULTIMO.MOVIMIENTO": "ALTA", "FECHA.ULTIMO.MOVIMIENTO": "18/07/2024", "COMENTARIOS.DE.LA.VALIDACION": "ESTABLECIMIENTO QUE PERTENECÍA A SECRETARIA DE SALUD DEL ESTADO, SE TRANSFIERE A SERVICIOS DE SALUD IMSS BIENESTAR.", "CLAVE.MOTIVO.BAJA": null, "MOTIVO.BAJA": null, "FECHA.EFECTIVA.DE.BAJA": null, "archivo_origen": "1er_N_Público", "Conteo_N1_T10": 0, "Conteo_N1_T20": 1, "Conteo_N1_T40": 1, "Conteo_N1_T60": 1, "Conteo_N2_T10": 1, "Conteo_N2_T20": 1, "Conteo_N2_T40": 1, "Conteo_N2_T60": 1, "Conteo_N3_T10": 0, "Conteo_N3_T20": 0, "Conteo_N3_T40": 0, "Conteo_N3_T60": 0, "CLUES_N1_mas_cercano": "HGIMO000964", "Tiempo_promedio_CLUES_N1_mas_cercano": 14.0619006467518, "CLUES_N2_mas_cercano": "HGIMO000952", "Tiempo_promedio_CLUES_N2_mas_cercano": 2.4798435532604102, "CLUES_N3_mas_cercano": "HGIMB002304", "Tiempo_promedio_CLUES_N3_mas_cercano": 94.5189273202989, "POB1_T10": 35193.529394088298, "POB42_T10": 18613.7730248997, "POB84_T10": 16513.893831968999, "POB17_T10": 33706.9267253207, "POB18_T10": 32571.432728824399, "POB19_T10": 28355.652009849298, "POB20_T10": 26594.632796299102, "POB21_T10": 24754.5068207451, "POB22_T10": 20657.614048928299, "POB23_T10": 4704.7784775620503, "POB24_T10": 3248.81551152676, "POB25_T10": 2079.0571106110201, "SALUD1_T10": 24808.118440779701, "SALUD2_T10": 10294.548416088999, "SALUD3_T10": 12027.6780533089, "SALUD4_T10": 1887.9890495869199, "SALUD5_T10": 9819.9456373089306, "SALUD6_T10": 548.68547723181302, "SALUD7_T10": 341.36770026359699, "SALUD8_T10": 228, "SALUD9_T10": 103.322564983812, "SALUD10_T10": 137.299826547355, "CLUES_N1_10_T10": 0, "CLUES_N1_20_T10": 0, "CLUES_N1_40_T10": 0, "CLUES_N1_60_T10": 0, "tiempo_promedio_clues_N1_mas_cercano_T10": 0, "id_clues_N1_mas_cercano_T10": 0, "CLUES_N2_10_T10": 0, "CLUES_N2_20_T10": 0, "CLUES_N2_40_T10": 0, "CLUES_N2_60_T10": 0, "tiempo_promedio_clues_N2_mas_cercano_T10": 0, "id_clues_N2_mas_cercano_T10": 0, "CLUES_N3_10_T10": 0, "CLUES_N3_20_T10": 0, "CLUES_N3_40_T10": 0, "CLUES_N3_60_T10": 0, "tiempo_promedio_clues_N3_mas_cercano_T10": 0, "id_clues_N3_mas_cercano_T10": 0, "POB1_T20": 61823.9272215655, "POB42_T20": 32233.300367802301, "POB84_T20": 29477.568844871799, "POB17_T20": 59082.693526319199, "POB18_T20": 57041.749665517098, "POB19_T20": 49471.058046890597, "POB20_T20": 46256.524188336698, "POB21_T20": 42965.823844480197, "POB22_T20": 35708.255710433397, "POB23_T20": 8106.2626375668397, "POB24_T20": 5618.5014457837196, "POB25_T20": 3698.5350315352998, "SALUD1_T20": 44641.966861354696, "SALUD2_T20": 17027.1320107192, "SALUD3_T20": 20527.903470888901, "SALUD4_T20": 2523.1254522344798, "SALUD5_T20": 20119.971526545101, "SALUD6_T20": 723.42693646942303, "SALUD7_T20": 483.52840299658197, "SALUD8_T20": 271.502450176737, "SALUD9_T20": 129.734820115448, "SALUD10_T20": 286.58908079538497, "CLUES_N1_10_T20": 0, "CLUES_N1_20_T20": 0, "CLUES_N1_40_T20": 0, "CLUES_N1_60_T20": 0, "tiempo_promedio_clues_N1_mas_cercano_T20": 0, "id_clues_N1_mas_cercano_T20": 0, "CLUES_N2_10_T20": 0, "CLUES_N2_20_T20": 0, "CLUES_N2_40_T20": 0, "CLUES_N2_60_T20": 0, "tiempo_promedio_clues_N2_mas_cercano_T20": 0, "id_clues_N2_mas_cercano_T20": 0, "CLUES_N3_10_T20": 0, "CLUES_N3_20_T20": 0, "CLUES_N3_40_T20": 0, "CLUES_N3_60_T20": 0, "tiempo_promedio_clues_N3_mas_cercano_T20": 0, "id_clues_N3_mas_cercano_T20": 0, "POB1_T40": 142404.715084822, "POB42_T40": 73994.465692985803, "POB84_T40": 68095.325505021101, "POB17_T40": 136480.40907260799, "POB18_T40": 132102.28738160001, "POB19_T40": 115647.241160912, "POB20_T40": 108442.56172740299, "POB21_T40": 101012.564012737, "POB22_T40": 84812.4701158885, "POB23_T40": 20077.3019461855, "POB24_T40": 13818.893390020099, "POB25_T40": 9060.0493491185898, "SALUD1_T40": 102828.985425156, "SALUD2_T40": 39136.097460623001, "SALUD3_T40": 59509.7178147784, "SALUD4_T40": 5647.7150184606098, "SALUD5_T40": 35100.021900343498, "SALUD6_T40": 952.05698810833303, "SALUD7_T40": 1234.83324890982, "SALUD8_T40": 577.08312227454098, "SALUD9_T40": 247, "SALUD10_T40": 529.84138708417402, "CLUES_N1_10_T40": 0, "CLUES_N1_20_T40": 0, "CLUES_N1_40_T40": 0, "CLUES_N1_60_T40": 0, "tiempo_promedio_clues_N1_mas_cercano_T40": 0, "id_clues_N1_mas_cercano_T40": 0, "CLUES_N2_10_T40": 0, "CLUES_N2_20_T40": 0, "CLUES_N2_40_T40": 0, "CLUES_N2_60_T40": 0, "tiempo_promedio_clues_N2_mas_cercano_T40": 0, "id_clues_N2_mas_cercano_T40": 0, "CLUES_N3_10_T40": 0, "CLUES_N3_20_T40": 0, "CLUES_N3_40_T40": 0, "CLUES_N3_60_T40": 0, "tiempo_promedio_clues_N3_mas_cercano_T40": 0, "id_clues_N3_mas_cercano_T40": 0, "POB1_T60": 166822, "POB42_T60": 86531, "POB84_T60": 79816, "POB17_T60": 159823, "POB18_T60": 154673, "POB19_T60": 135214, "POB20_T60": 126714, "POB21_T60": 118031, "POB22_T60": 99087, "POB23_T60": 23572, "POB24_T60": 16301, "POB25_T60": 10734, "SALUD1_T60": 117098, "SALUD2_T60": 49101, "SALUD3_T60": 65008, "SALUD4_T60": 6723, "SALUD5_T60": 42041, "SALUD6_T60": 1049, "SALUD7_T60": 1742, "SALUD8_T60": 731, "SALUD9_T60": 270, "SALUD10_T60": 569, "CLUES_N1_10_T60": 0, "CLUES_N1_20_T60": 0, "CLUES_N1_40_T60": 0, "CLUES_N1_60_T60": 0, "tiempo_promedio_clues_N1_mas_cercano_T60": 0, "id_clues_N1_mas_cercano_T60": 0, "CLUES_N2_10_T60": 0, "CLUES_N2_20_T60": 0, "CLUES_N2_40_T60": 0, "CLUES_N2_60_T60": 0, "tiempo_promedio_clues_N2_mas_cercano_T60": 0, "id_clues_N2_mas_cercano_T60": 0, "CLUES_N3_10_T60": 0, "CLUES_N3_20_T60": 0, "CLUES_N3_40_T60": 0, "CLUES_N3_60_T60": 0, "tiempo_promedio_clues_N3_mas_cercano_T60": 0, "id_clues_N3_mas_cercano_T60": 0 }, "geometry": { "type": "Point", "coordinates": [ -98.320354, 20.237252 ] } },
{ "type": "Feature", "properties": { "CLUES": "HGIMB002304", "CLAVE.DE.LA.INSTITUCION": "IMB", "NOMBRE.DE.LA.INSTITUCION": "SERVICIOS DE SALUD IMSS BIENESTAR ", "CLAVE.DE.LA.ENTIDAD": "13", "ENTIDAD": "HIDALGO", "CLAVE.DEL.MUNICIPIO": "048", "MUNICIPIO": "PACHUCA DE SOTO", "CLAVE.DE.LA.LOCALIDAD": "0001", "LOCALIDAD": "PACHUCA DE SOTO", "CLAVE.DE.LA.JURISDICCION": "03", "JURISDICCION": "PACHUCA DE SOTO", "CLAVE.DEL.TIPO.ESTABLECIMIENTO": "2", "NOMBRE.TIPO.ESTABLECIMIENTO": "DE HOSPITALIZACIÓN", "CLAVE.DE.TIPOLOGIA": "M", "NOMBRE.DE.TIPOLOGIA": "HOSPITAL GENERAL", "CLAVE.DE.SUBTIPOLOGIA": "99", "NOMBRE.DE.SUBTIPOLOGIA": "NO ESPECIFICADO", "NOMBRE.DE.LA.UNIDAD": "HOSPITAL GENERAL PACHUCA", "NOMBRE.COMERCIAL": "HOSPITAL GENERAL PACHUCA", "CLAVE.TIPO.DE.VIALIDAD": "24", "TIPO.DE.VIALIDAD": "CARRETERA", "VIALIDAD": "PACHUCA - TULANCINGO", "NUMERO.EXTERIOR": "101", "NUMERO.INTERIOR": "SIN NUMERO", "CLAVE.TIPO.DE.ASENTAMIENTO": null, "TIPO.DE.ASENTAMIENTO": null, "ASENTAMIENTO": "CIUDAD DE LOS NIÑOS", "CODIGO.POSTAL": "42070", "OBSERVACIONES.DE.LA.DIRECCION": "CARRETERA PACHUCA TULANCINGO NO.101, COL. CIUDAD DE LOS NIÑOS", "CLAVE.ESTATUS.DE.OPERACION": "1", "ESTATUS.DE.OPERACION": "EN OPERACION", "RFC.DEL.ESTABLECIMIENTO": null, "TELEFONO.1.DEL.ESTABLECIMIENTO": null, "EXTENSION.TELEFONICA.1.DEL.ESTABLECIMIENTO": null, "TELEFONO.2.DEL.ESTABLECIMIENTO": null, "EXTENSION.TELEFONICA.2.DEL.ESTABLECIMIENTO": null, "FECHA.DE.CONSTRUCCION": null, "FECHA.DE.INICIO.DE.OPERACION": "01/01/1979", "CLAVE.UNIDAD.MOVIL.MARCA": null, "UNIDAD.MOVIL.MARCA": null, "UNIDAD.MOVIL.MARCA.ESPECIFICA": null, "UNIDAD.MOVIL.MODELO": null, "CLAVE.UNIDAD.MOVIL.PROGRAMA": null, "UNIDAD.MOVIL.PROGRAMA": null, "CLAVE.UNIDAD.MOVIL.TIPO": null, "UNIDAD.MOVIL.TIPO": null, "CLAVE.UNIDAD.MOVIL.TIPOLOGIA": null, "UNIDAD.MOVIL.TIPOLOGIA": null, "CLAVE.DE.LA.INS.ADM": "IMB", "NOMBRE.DE.LA.INS.ADM": "SERVICIOS DE SALUD IMSS BIENESTAR ", "CLAVE.NIVEL.ATENCION": "3", "NIVEL.ATENCION": "TERCER NIVEL", "CLAVE.ESTRATO.UNIDAD": "2", "ESTRATO.UNIDAD": "URBANO", "CLAVE.TIPO.OBRA": null, "TIPO.OBRA": null, "CLAVE.PROPIEDAD.DEL.INMUEBLE": null, "PROPIEDAD.DEL.INMUEBLE": null, "CLAVE.ULTIMO.MOVIMIENTO": null, "ULTIMO.MOVIMIENTO": null, "FECHA.ULTIMO.MOVIMIENTO": null, "COMENTARIOS.DE.LA.VALIDACION": null, "CLAVE.MOTIVO.BAJA": null, "MOTIVO.BAJA": null, "FECHA.EFECTIVA.DE.BAJA": null, "archivo_origen": "3er_N_Público", "Conteo_N1_T10": 0, "Conteo_N1_T20": 0, "Conteo_N1_T40": 0, "Conteo_N1_T60": 0, "Conteo_N2_T10": 0, "Conteo_N2_T20": 0, "Conteo_N2_T40": 0, "Conteo_N2_T60": 0, "Conteo_N3_T10": 0, "Conteo_N3_T20": 1, "Conteo_N3_T40": 1, "Conteo_N3_T60": 1, "CLUES_N1_mas_cercano": "HGIMB001790", "Tiempo_promedio_CLUES_N1_mas_cercano": 94.518927320298999, "CLUES_N2_mas_cercano": "HGIMO000952", "Tiempo_promedio_CLUES_N2_mas_cercano": 92.293577752288599, "CLUES_N3_mas_cercano": "HGDIF000014", "Tiempo_promedio_CLUES_N3_mas_cercano": 14.0834253621187, "POB1_T10": 35193.529394088298, "POB42_T10": 18613.7730248997, "POB84_T10": 16513.893831968999, "POB17_T10": 33706.9267253207, "POB18_T10": 32571.432728824399, "POB19_T10": 28355.652009849298, "POB20_T10": 26594.632796299102, "POB21_T10": 24754.5068207451, "POB22_T10": 20657.614048928299, "POB23_T10": 4704.7784775620503, "POB24_T10": 3248.81551152676, "POB25_T10": 2079.0571106110201, "SALUD1_T10": 24808.118440779701, "SALUD2_T10": 10294.548416088999, "SALUD3_T10": 12027.6780533089, "SALUD4_T10": 1887.9890495869199, "SALUD5_T10": 9819.9456373089306, "SALUD6_T10": 548.68547723181302, "SALUD7_T10": 341.36770026359699, "SALUD8_T10": 228, "SALUD9_T10": 103.322564983812, "SALUD10_T10": 137.299826547355, "CLUES_N1_10_T10": 0, "CLUES_N1_20_T10": 0, "CLUES_N1_40_T10": 0, "CLUES_N1_60_T10": 0, "tiempo_promedio_clues_N1_mas_cercano_T10": 0, "id_clues_N1_mas_cercano_T10": 0, "CLUES_N2_10_T10": 0, "CLUES_N2_20_T10": 0, "CLUES_N2_40_T10": 0, "CLUES_N2_60_T10": 0, "tiempo_promedio_clues_N2_mas_cercano_T10": 0, "id_clues_N2_mas_cercano_T10": 0, "CLUES_N3_10_T10": 0, "CLUES_N3_20_T10": 0, "CLUES_N3_40_T10": 0, "CLUES_N3_60_T10": 0, "tiempo_promedio_clues_N3_mas_cercano_T10": 0, "id_clues_N3_mas_cercano_T10": 0, "POB1_T20": 61823.9272215655, "POB42_T20": 32233.300367802301, "POB84_T20": 29477.568844871799, "POB17_T20": 59082.693526319199, "POB18_T20": 57041.749665517098, "POB19_T20": 49471.058046890597, "POB20_T20": 46256.524188336698, "POB21_T20": 42965.823844480197, "POB22_T20": 35708.255710433397, "POB23_T20": 8106.2626375668397, "POB24_T20": 5618.5014457837196, "POB25_T20": 3698.5350315352998, "SALUD1_T20": 44641.966861354696, "SALUD2_T20": 17027.1320107192, "SALUD3_T20": 20527.903470888901, "SALUD4_T20": 2523.1254522344798, "SALUD5_T20": 20119.971526545101, "SALUD6_T20": 723.42693646942303, "SALUD7_T20": 483.52840299658197, "SALUD8_T20": 271.502450176737, "SALUD9_T20": 129.734820115448, "SALUD10_T20": 286.58908079538497, "CLUES_N1_10_T20": 0, "CLUES_N1_20_T20": 0, "CLUES_N1_40_T20": 0, "CLUES_N1_60_T20": 0, "tiempo_promedio_clues_N1_mas_cercano_T20": 0, "id_clues_N1_mas_cercano_T20": 0, "CLUES_N2_10_T20": 0, "CLUES_N2_20_T20": 0, "CLUES_N2_40_T20": 0, "CLUES_N2_60_T20": 0, "tiempo_promedio_clues_N2_mas_cercano_T20": 0, "id_clues_N2_mas_cercano_T20": 0, "CLUES_N3_10_T20": 0, "CLUES_N3_20_T20": 0, "CLUES_N3_40_T20": 0, "CLUES_N3_60_T20": 0, "tiempo_promedio_clues_N3_mas_cercano_T20": 0, "id_clues_N3_mas_cercano_T20": 0, "POB1_T40": 142404.715084822, "POB42_T40": 73994.465692985803, "POB84_T40": 68095.325505021101, "POB17_T40": 136480.40907260799, "POB18_T40": 132102.28738160001, "POB19_T40": 115647.241160912, "POB20_T40": 108442.56172740299, "POB21_T40": 101012.564012737, "POB22_T40": 84812.4701158885, "POB23_T40": 20077.3019461855, "POB24_T40": 13818.893390020099, "POB25_T40": 9060.0493491185898, "SALUD1_T40": 102828.985425156, "SALUD2_T40": 39136.097460623001, "SALUD3_T40": 59509.7178147784, "SALUD4_T40": 5647.7150184606098, "SALUD5_T40": 35100.021900343498, "SALUD6_T40": 952.05698810833303, "SALUD7_T40": 1234.83324890982, "SALUD8_T40": 577.08312227454098, "SALUD9_T40": 247, "SALUD10_T40": 529.84138708417402, "CLUES_N1_10_T40": 0, "CLUES_N1_20_T40": 0, "CLUES_N1_40_T40": 0, "CLUES_N1_60_T40": 0, "tiempo_promedio_clues_N1_mas_cercano_T40": 0, "id_clues_N1_mas_cercano_T40": 0, "CLUES_N2_10_T40": 0, "CLUES_N2_20_T40": 0, "CLUES_N2_40_T40": 0, "CLUES_N2_60_T40": 0, "tiempo_promedio_clues_N2_mas_cercano_T40": 0, "id_clues_N2_mas_cercano_T40": 0, "CLUES_N3_10_T40": 0, "CLUES_N3_20_T40": 0, "CLUES_N3_40_T40": 0, "CLUES_N3_60_T40": 0, "tiempo_promedio_clues_N3_mas_cercano_T40": 0, "id_clues_N3_mas_cercano_T40": 0, "POB1_T60": 166822, "POB42_T60": 86531, "POB84_T60": 79816, "POB17_T60": 159823, "POB18_T60": 154673, "POB19_T60": 135214, "POB20_T60": 126714, "POB21_T60": 118031, "POB22_T60": 99087, "POB23_T60": 23572, "POB24_T60": 16301, "POB25_T60": 10734, "SALUD1_T60": 117098, "SALUD2_T60": 49101, "SALUD3_T60": 65008, "SALUD4_T60": 6723, "SALUD5_T60": 42041, "SALUD6_T60": 1049, "SALUD7_T60": 1742, "SALUD8_T60": 731, "SALUD9_T60": 270, "SALUD10_T60": 569, "CLUES_N1_10_T60": 0, "CLUES_N1_20_T60": 0, "CLUES_N1_40_T60": 0, "CLUES_N1_60_T60": 0, "tiempo_promedio_clues_N1_mas_cercano_T60": 0, "id_clues_N1_mas_cercano_T60": 0, "CLUES_N2_10_T60": 0, "CLUES_N2_20_T60": 0, "CLUES_N2_40_T60": 0, "CLUES_N2_60_T60": 0, "tiempo_promedio_clues_N2_mas_cercano_T60": 0, "id_clues_N2_mas_cercano_T60": 0, "CLUES_N3_10_T60": 0, "CLUES_N3_20_T60": 0, "CLUES_N3_40_T60": 0, "CLUES_N3_60_T60": 0, "tiempo_promedio_clues_N3_mas_cercano_T60": 0, "id_clues_N3_mas_cercano_T60": 0 }, "geometry": { "type": "Point", "coordinates": [ -98.722855, 20.11376 ] } },
{ "type": "Feature", "properties": { "CLUES": "HGIMB004800", "CLAVE.DE.LA.INSTITUCION": "IMB", "NOMBRE.DE.LA.INSTITUCION": "SERVICIOS DE SALUD IMSS BIENESTAR ", "CLAVE.DE.LA.ENTIDAD": "13", "ENTIDAD": "HIDALGO", "CLAVE.DEL.MUNICIPIO": "008", "MUNICIPIO": "APAN", "CLAVE.DE.LA.LOCALIDAD": "0001", "LOCALIDAD": "APAN", "CLAVE.DE.LA.JURISDICCION": "10", "JURISDICCION": "APAN", "CLAVE.DEL.TIPO.ESTABLECIMIENTO": "2", "NOMBRE.TIPO.ESTABLECIMIENTO": "DE HOSPITALIZACIÓN", "CLAVE.DE.TIPOLOGIA": "M", "NOMBRE.DE.TIPOLOGIA": "HOSPITAL GENERAL", "CLAVE.DE.SUBTIPOLOGIA": "99", "NOMBRE.DE.SUBTIPOLOGIA": "NO ESPECIFICADO", "NOMBRE.DE.LA.UNIDAD": "HOSPITAL GENERAL DE APAN", "NOMBRE.COMERCIAL": "HOSPITAL GENERAL DE APAN", "CLAVE.TIPO.DE.VIALIDAD": "25", "TIPO.DE.VIALIDAD": "LIBRAMIENTO", "VIALIDAD": "JOSÉ FRANCISCO OSORNO", "NUMERO.EXTERIOR": "2", "NUMERO.INTERIOR": "SIN NUMERO", "CLAVE.TIPO.DE.ASENTAMIENTO": "7", "TIPO.DE.ASENTAMIENTO": "COLONIA", "ASENTAMIENTO": "SAN RAFAEL", "CODIGO.POSTAL": "43909", "OBSERVACIONES.DE.LA.DIRECCION": "LIBRAMIENTO A APAN COL CD. DEPORTIVA DE APAN", "CLAVE.ESTATUS.DE.OPERACION": "1", "ESTATUS.DE.OPERACION": "EN OPERACION", "RFC.DEL.ESTABLECIMIENTO": null, "TELEFONO.1.DEL.ESTABLECIMIENTO": null, "EXTENSION.TELEFONICA.1.DEL.ESTABLECIMIENTO": null, "TELEFONO.2.DEL.ESTABLECIMIENTO": null, "EXTENSION.TELEFONICA.2.DEL.ESTABLECIMIENTO": null, "FECHA.DE.CONSTRUCCION": null, "FECHA.DE.INICIO.DE.OPERACION": null, "CLAVE.UNIDAD.MOVIL.MARCA": null, "UNIDAD.MOVIL.MARCA": null, "UNIDAD.MOVIL.MARCA.ESPECIFICA": null, "UNIDAD.MOVIL.MODELO": null, "CLAVE.UNIDAD.MOVIL.PROGRAMA": null, "UNIDAD.MOVIL.PROGRAMA": null, "CLAVE.UNIDAD.MOVIL.TIPO": null, "UNIDAD.MOVIL.TIPO": null, "CLAVE.UNIDAD.MOVIL.TIPOLOGIA": null, "UNIDAD.MOVIL.TIPOLOGIA": null, "CLAVE.DE.LA.INS.ADM": "IMB", "NOMBRE.DE.LA.INS.ADM": "SERVICIOS DE SALUD IMSS BIENESTAR ", "CLAVE.NIVEL.ATENCION": "2", "NIVEL.ATENCION": "SEGUNDO NIVEL", "CLAVE.ESTRATO.UNIDAD": "2", "ESTRATO.UNIDAD": "URBANO", "CLAVE.TIPO.OBRA": null, "TIPO.OBRA": null, "CLAVE.PROPIEDAD.DEL.INMUEBLE": null, "PROPIEDAD.DEL.INMUEBLE": null, "CLAVE.ULTIMO.MOVIMIENTO": null, "ULTIMO.MOVIMIENTO": null, "FECHA.ULTIMO.MOVIMIENTO": null, "COMENTARIOS.DE.LA.VALIDACION": null, "CLAVE.MOTIVO.BAJA": null, "MOTIVO.BAJA": null, "FECHA.EFECTIVA.DE.BAJA": null, "archivo_origen": "2do_N_Público", "Conteo_N1_T10": 0, "Conteo_N1_T20": 2, "Conteo_N1_T40": 3, "Conteo_N1_T60": 3, "Conteo_N2_T10": 3, "Conteo_N2_T20": 3, "Conteo_N2_T40": 3, "Conteo_N2_T60": 3, "Conteo_N3_T10": 0, "Conteo_N3_T20": 0, "Conteo_N3_T40": 0, "Conteo_N3_T60": 0, "CLUES_N1_mas_cercano": "HGIMB000344", "Tiempo_promedio_CLUES_N1_mas_cercano": 10.2199189011441, "CLUES_N2_mas_cercano": "HGSMP000881", "Tiempo_promedio_CLUES_N2_mas_cercano": 2.0387950531299199, "CLUES_N3_mas_cercano": "HGIMB002304", "Tiempo_promedio_CLUES_N3_mas_cercano": 95.395120995958294, "POB1_T10": 35193.529394088298, "POB42_T10": 18613.7730248997, "POB84_T10": 16513.893831968999, "POB17_T10": 33706.9267253207, "POB18_T10": 32571.432728824399, "POB19_T10": 28355.652009849298, "POB20_T10": 26594.632796299102, "POB21_T10": 24754.5068207451, "POB22_T10": 20657.614048928299, "POB23_T10": 4704.7784775620503, "POB24_T10": 3248.81551152676, "POB25_T10": 2079.0571106110201, "SALUD1_T10": 24808.118440779701, "SALUD2_T10": 10294.548416088999, "SALUD3_T10": 12027.6780533089, "SALUD4_T10": 1887.9890495869199, "SALUD5_T10": 9819.9456373089306, "SALUD6_T10": 548.68547723181302, "SALUD7_T10": 341.36770026359699, "SALUD8_T10": 228, "SALUD9_T10": 103.322564983812, "SALUD10_T10": 137.299826547355, "CLUES_N1_10_T10": 0, "CLUES_N1_20_T10": 0, "CLUES_N1_40_T10": 0, "CLUES_N1_60_T10": 0, "tiempo_promedio_clues_N1_mas_cercano_T10": 0, "id_clues_N1_mas_cercano_T10": 0, "CLUES_N2_10_T10": 0, "CLUES_N2_20_T10": 0, "CLUES_N2_40_T10": 0, "CLUES_N2_60_T10": 0, "tiempo_promedio_clues_N2_mas_cercano_T10": 0, "id_clues_N2_mas_cercano_T10": 0, "CLUES_N3_10_T10": 0, "CLUES_N3_20_T10": 0, "CLUES_N3_40_T10": 0, "CLUES_N3_60_T10": 0, "tiempo_promedio_clues_N3_mas_cercano_T10": 0, "id_clues_N3_mas_cercano_T10": 0, "POB1_T20": 61823.9272215655, "POB42_T20": 32233.300367802301, "POB84_T20": 29477.568844871799, "POB17_T20": 59082.693526319199, "POB18_T20": 57041.749665517098, "POB19_T20": 49471.058046890597, "POB20_T20": 46256.524188336698, "POB21_T20": 42965.823844480197, "POB22_T20": 35708.255710433397, "POB23_T20": 8106.2626375668397, "POB24_T20": 5618.5014457837196, "POB25_T20": 3698.5350315352998, "SALUD1_T20": 44641.966861354696, "SALUD2_T20": 17027.1320107192, "SALUD3_T20": 20527.903470888901, "SALUD4_T20": 2523.1254522344798, "SALUD5_T20": 20119.971526545101, "SALUD6_T20": 723.42693646942303, "SALUD7_T20": 483.52840299658197, "SALUD8_T20": 271.502450176737, "SALUD9_T20": 129.734820115448, "SALUD10_T20": 286.58908079538497, "CLUES_N1_10_T20": 0, "CLUES_N1_20_T20": 0, "CLUES_N1_40_T20": 0, "CLUES_N1_60_T20": 0, "tiempo_promedio_clues_N1_mas_cercano_T20": 0, "id_clues_N1_mas_cercano_T20": 0, "CLUES_N2_10_T20": 0, "CLUES_N2_20_T20": 0, "CLUES_N2_40_T20": 0, "CLUES_N2_60_T20": 0, "tiempo_promedio_clues_N2_mas_cercano_T20": 0, "id_clues_N2_mas_cercano_T20": 0, "CLUES_N3_10_T20": 0, "CLUES_N3_20_T20": 0, "CLUES_N3_40_T20": 0, "CLUES_N3_60_T20": 0, "tiempo_promedio_clues_N3_mas_cercano_T20": 0, "id_clues_N3_mas_cercano_T20": 0, "POB1_T40": 142404.715084822, "POB42_T40": 73994.465692985803, "POB84_T40": 68095.325505021101, "POB17_T40": 136480.40907260799, "POB18_T40": 132102.28738160001, "POB19_T40": 115647.241160912, "POB20_T40": 108442.56172740299, "POB21_T40": 101012.564012737, "POB22_T40": 84812.4701158885, "POB23_T40": 20077.3019461855, "POB24_T40": 13818.893390020099, "POB25_T40": 9060.0493491185898, "SALUD1_T40": 102828.985425156, "SALUD2_T40": 39136.097460623001, "SALUD3_T40": 59509.7178147784, "SALUD4_T40": 5647.7150184606098, "SALUD5_T40": 35100.021900343498, "SALUD6_T40": 952.05698810833303, "SALUD7_T40": 1234.83324890982, "SALUD8_T40": 577.08312227454098, "SALUD9_T40": 247, "SALUD10_T40": 529.84138708417402, "CLUES_N1_10_T40": 0, "CLUES_N1_20_T40": 0, "CLUES_N1_40_T40": 0, "CLUES_N1_60_T40": 0, "tiempo_promedio_clues_N1_mas_cercano_T40": 0, "id_clues_N1_mas_cercano_T40": 0, "CLUES_N2_10_T40": 0, "CLUES_N2_20_T40": 0, "CLUES_N2_40_T40": 0, "CLUES_N2_60_T40": 0, "tiempo_promedio_clues_N2_mas_cercano_T40": 0, "id_clues_N2_mas_cercano_T40": 0, "CLUES_N3_10_T40": 0, "CLUES_N3_20_T40": 0, "CLUES_N3_40_T40": 0, "CLUES_N3_60_T40": 0, "tiempo_promedio_clues_N3_mas_cercano_T40": 0, "id_clues_N3_mas_cercano_T40": 0, "POB1_T60": 166822, "POB42_T60": 86531, "POB84_T60": 79816, "POB17_T60": 159823, "POB18_T60": 154673, "POB19_T60": 135214, "POB20_T60": 126714, "POB21_T60": 118031, "POB22_T60": 99087, "POB23_T60": 23572, "POB24_T60": 16301, "POB25_T60": 10734, "SALUD1_T60": 117098, "SALUD2_T60": 49101, "SALUD3_T60": 65008, "SALUD4_T60": 6723, "SALUD5_T60": 42041, "SALUD6_T60": 1049, "SALUD7_T60": 1742, "SALUD8_T60": 731, "SALUD9_T60": 270, "SALUD10_T60": 569, "CLUES_N1_10_T60": 0, "CLUES_N1_20_T60": 0, "CLUES_N1_40_T60": 0, "CLUES_N1_60_T60": 0, "tiempo_promedio_clues_N1_mas_cercano_T60": 0, "id_clues_N1_mas_cercano_T60": 0, "CLUES_N2_10_T60": 0, "CLUES_N2_20_T60": 0, "CLUES_N2_40_T60": 0, "CLUES_N2_60_T60": 0, "tiempo_promedio_clues_N2_mas_cercano_T60": 0, "id_clues_N2_mas_cercano_T60": 0, "CLUES_N3_10_T60": 0, "CLUES_N3_20_T60": 0, "CLUES_N3_40_T60": 0, "CLUES_N3_60_T60": 0, "tiempo_promedio_clues_N3_mas_cercano_T60": 0, "id_clues_N3_mas_cercano_T60": 0 }, "geometry": { "type": "Point", "coordinates": [ -98.465096, 19.713632 ] } },
{ "type": "Feature", "properties": { "CLUES": "HGIMO000952", "CLAVE.DE.LA.INSTITUCION": "IMO", "NOMBRE.DE.LA.INSTITUCION": "INSTITUTO MEXICANO DEL SEGURO SOCIAL REGIMEN BIENESTAR", "CLAVE.DE.LA.ENTIDAD": "13", "ENTIDAD": "HIDALGO", "CLAVE.DEL.MUNICIPIO": "035", "MUNICIPIO": "METEPEC", "CLAVE.DE.LA.LOCALIDAD": "0001", "LOCALIDAD": "METEPEC", "CLAVE.DE.LA.JURISDICCION": "02", "JURISDICCION": "TULANCINGO DE BRAVO", "CLAVE.DEL.TIPO.ESTABLECIMIENTO": "2", "NOMBRE.TIPO.ESTABLECIMIENTO": "DE HOSPITALIZACIÓN", "CLAVE.DE.TIPOLOGIA": "HR", "NOMBRE.DE.TIPOLOGIA": "HOSPITAL RURAL", "CLAVE.DE.SUBTIPOLOGIA": "99", "NOMBRE.DE.SUBTIPOLOGIA": "NO ESPECIFICADO", "NOMBRE.DE.LA.UNIDAD": "METEPEC", "NOMBRE.COMERCIAL": "METEPEC", "CLAVE.TIPO.DE.VIALIDAD": "24", "TIPO.DE.VIALIDAD": "CARRETERA", "VIALIDAD": "MÉXICO HUAYACOCOTLA", "NUMERO.EXTERIOR": "SIN NUMERO  ", "NUMERO.INTERIOR": null, "CLAVE.TIPO.DE.ASENTAMIENTO": "7", "TIPO.DE.ASENTAMIENTO": "COLONIA", "ASENTAMIENTO": "METEPEC CENTRO", "CODIGO.POSTAL": "43400", "OBSERVACIONES.DE.LA.DIRECCION": "CARRETERA MÉXICO HUAYACOCOTLA", "CLAVE.ESTATUS.DE.OPERACION": "1", "ESTATUS.DE.OPERACION": "EN OPERACION", "RFC.DEL.ESTABLECIMIENTO": null, "TELEFONO.1.DEL.ESTABLECIMIENTO": null, "EXTENSION.TELEFONICA.1.DEL.ESTABLECIMIENTO": null, "TELEFONO.2.DEL.ESTABLECIMIENTO": null, "EXTENSION.TELEFONICA.2.DEL.ESTABLECIMIENTO": null, "FECHA.DE.CONSTRUCCION": null, "FECHA.DE.INICIO.DE.OPERACION": "01/05/1980", "CLAVE.UNIDAD.MOVIL.MARCA": null, "UNIDAD.MOVIL.MARCA": null, "UNIDAD.MOVIL.MARCA.ESPECIFICA": null, "UNIDAD.MOVIL.MODELO": null, "CLAVE.UNIDAD.MOVIL.PROGRAMA": null, "UNIDAD.MOVIL.PROGRAMA": null, "CLAVE.UNIDAD.MOVIL.TIPO": null, "UNIDAD.MOVIL.TIPO": null, "CLAVE.UNIDAD.MOVIL.TIPOLOGIA": null, "UNIDAD.MOVIL.TIPOLOGIA": null, "CLAVE.DE.LA.INS.ADM": "IMO", "NOMBRE.DE.LA.INS.ADM": "IMSS BIENESTAR PROGRAMA", "CLAVE.NIVEL.ATENCION": "2", "NIVEL.ATENCION": "SEGUNDO NIVEL", "CLAVE.ESTRATO.UNIDAD": "2", "ESTRATO.UNIDAD": "URBANO", "CLAVE.TIPO.OBRA": null, "TIPO.OBRA": null, "CLAVE.PROPIEDAD.DEL.INMUEBLE": null, "PROPIEDAD.DEL.INMUEBLE": null, "CLAVE.ULTIMO.MOVIMIENTO": null, "ULTIMO.MOVIMIENTO": null, "FECHA.ULTIMO.MOVIMIENTO": null, "COMENTARIOS.DE.LA.VALIDACION": null, "CLAVE.MOTIVO.BAJA": null, "MOTIVO.BAJA": null, "FECHA.EFECTIVA.DE.BAJA": null, "archivo_origen": "2do_N_Público", "Conteo_N1_T10": 1, "Conteo_N1_T20": 2, "Conteo_N1_T40": 2, "Conteo_N1_T60": 2, "Conteo_N2_T10": 0, "Conteo_N2_T20": 0, "Conteo_N2_T40": 0, "Conteo_N2_T60": 0, "Conteo_N3_T10": 0, "Conteo_N3_T20": 0, "Conteo_N3_T40": 0, "Conteo_N3_T60": 0, "CLUES_N1_mas_cercano": "HGIMB001790", "Tiempo_promedio_CLUES_N1_mas_cercano": 2.4798435532604102, "CLUES_N2_mas_cercano": "HGSMP000864", "Tiempo_promedio_CLUES_N2_mas_cercano": 121.694290700835, "CLUES_N3_mas_cercano": "HGIMB002304", "Tiempo_promedio_CLUES_N3_mas_cercano": 92.293577752288499, "POB1_T10": 35193.529394088298, "POB42_T10": 18613.7730248997, "POB84_T10": 16513.893831968999, "POB17_T10": 33706.9267253207, "POB18_T10": 32571.432728824399, "POB19_T10": 28355.652009849298, "POB20_T10": 26594.632796299102, "POB21_T10": 24754.5068207451, "POB22_T10": 20657.614048928299, "POB23_T10": 4704.7784775620503, "POB24_T10": 3248.81551152676, "POB25_T10": 2079.0571106110201, "SALUD1_T10": 24808.118440779701, "SALUD2_T10": 10294.548416088999, "SALUD3_T10": 12027.6780533089, "SALUD4_T10": 1887.9890495869199, "SALUD5_T10": 9819.9456373089306, "SALUD6_T10": 548.68547723181302, "SALUD7_T10": 341.36770026359699, "SALUD8_T10": 228, "SALUD9_T10": 103.322564983812, "SALUD10_T10": 137.299826547355, "CLUES_N1_10_T10": 0, "CLUES_N1_20_T10": 0, "CLUES_N1_40_T10": 0, "CLUES_N1_60_T10": 0, "tiempo_promedio_clues_N1_mas_cercano_T10": 0, "id_clues_N1_mas_cercano_T10": 0, "CLUES_N2_10_T10": 0, "CLUES_N2_20_T10": 0, "CLUES_N2_40_T10": 0, "CLUES_N2_60_T10": 0, "tiempo_promedio_clues_N2_mas_cercano_T10": 0, "id_clues_N2_mas_cercano_T10": 0, "CLUES_N3_10_T10": 0, "CLUES_N3_20_T10": 0, "CLUES_N3_40_T10": 0, "CLUES_N3_60_T10": 0, "tiempo_promedio_clues_N3_mas_cercano_T10": 0, "id_clues_N3_mas_cercano_T10": 0, "POB1_T20": 61823.9272215655, "POB42_T20": 32233.300367802301, "POB84_T20": 29477.568844871799, "POB17_T20": 59082.693526319199, "POB18_T20": 57041.749665517098, "POB19_T20": 49471.058046890597, "POB20_T20": 46256.524188336698, "POB21_T20": 42965.823844480197, "POB22_T20": 35708.255710433397, "POB23_T20": 8106.2626375668397, "POB24_T20": 5618.5014457837196, "POB25_T20": 3698.5350315352998, "SALUD1_T20": 44641.966861354696, "SALUD2_T20": 17027.1320107192, "SALUD3_T20": 20527.903470888901, "SALUD4_T20": 2523.1254522344798, "SALUD5_T20": 20119.971526545101, "SALUD6_T20": 723.42693646942303, "SALUD7_T20": 483.52840299658197, "SALUD8_T20": 271.502450176737, "SALUD9_T20": 129.734820115448, "SALUD10_T20": 286.58908079538497, "CLUES_N1_10_T20": 0, "CLUES_N1_20_T20": 0, "CLUES_N1_40_T20": 0, "CLUES_N1_60_T20": 0, "tiempo_promedio_clues_N1_mas_cercano_T20": 0, "id_clues_N1_mas_cercano_T20": 0, "CLUES_N2_10_T20": 0, "CLUES_N2_20_T20": 0, "CLUES_N2_40_T20": 0, "CLUES_N2_60_T20": 0, "tiempo_promedio_clues_N2_mas_cercano_T20": 0, "id_clues_N2_mas_cercano_T20": 0, "CLUES_N3_10_T20": 0, "CLUES_N3_20_T20": 0, "CLUES_N3_40_T20": 0, "CLUES_N3_60_T20": 0, "tiempo_promedio_clues_N3_mas_cercano_T20": 0, "id_clues_N3_mas_cercano_T20": 0, "POB1_T40": 142404.715084822, "POB42_T40": 73994.465692985803, "POB84_T40": 68095.325505021101, "POB17_T40": 136480.40907260799, "POB18_T40": 132102.28738160001, "POB19_T40": 115647.241160912, "POB20_T40": 108442.56172740299, "POB21_T40": 101012.564012737, "POB22_T40": 84812.4701158885, "POB23_T40": 20077.3019461855, "POB24_T40": 13818.893390020099, "POB25_T40": 9060.0493491185898, "SALUD1_T40": 102828.985425156, "SALUD2_T40": 39136.097460623001, "SALUD3_T40": 59509.7178147784, "SALUD4_T40": 5647.7150184606098, "SALUD5_T40": 35100.021900343498, "SALUD6_T40": 952.05698810833303, "SALUD7_T40": 1234.83324890982, "SALUD8_T40": 577.08312227454098, "SALUD9_T40": 247, "SALUD10_T40": 529.84138708417402, "CLUES_N1_10_T40": 0, "CLUES_N1_20_T40": 0, "CLUES_N1_40_T40": 0, "CLUES_N1_60_T40": 0, "tiempo_promedio_clues_N1_mas_cercano_T40": 0, "id_clues_N1_mas_cercano_T40": 0, "CLUES_N2_10_T40": 0, "CLUES_N2_20_T40": 0, "CLUES_N2_40_T40": 0, "CLUES_N2_60_T40": 0, "tiempo_promedio_clues_N2_mas_cercano_T40": 0, "id_clues_N2_mas_cercano_T40": 0, "CLUES_N3_10_T40": 0, "CLUES_N3_20_T40": 0, "CLUES_N3_40_T40": 0, "CLUES_N3_60_T40": 0, "tiempo_promedio_clues_N3_mas_cercano_T40": 0, "id_clues_N3_mas_cercano_T40": 0, "POB1_T60": 166822, "POB42_T60": 86531, "POB84_T60": 79816, "POB17_T60": 159823, "POB18_T60": 154673, "POB19_T60": 135214, "POB20_T60": 126714, "POB21_T60": 118031, "POB22_T60": 99087, "POB23_T60": 23572, "POB24_T60": 16301, "POB25_T60": 10734, "SALUD1_T60": 117098, "SALUD2_T60": 49101, "SALUD3_T60": 65008, "SALUD4_T60": 6723, "SALUD5_T60": 42041, "SALUD6_T60": 1049, "SALUD7_T60": 1742, "SALUD8_T60": 731, "SALUD9_T60": 270, "SALUD10_T60": 569, "CLUES_N1_10_T60": 0, "CLUES_N1_20_T60": 0, "CLUES_N1_40_T60": 0, "CLUES_N1_60_T60": 0, "tiempo_promedio_clues_N1_mas_cercano_T60": 0, "id_clues_N1_mas_cercano_T60": 0, "CLUES_N2_10_T60": 0, "CLUES_N2_20_T60": 0, "CLUES_N2_40_T60": 0, "CLUES_N2_60_T60": 0, "tiempo_promedio_clues_N2_mas_cercano_T60": 0, "id_clues_N2_mas_cercano_T60": 0, "CLUES_N3_10_T60": 0, "CLUES_N3_20_T60": 0, "CLUES_N3_40_T60": 0, "CLUES_N3_60_T60": 0, "tiempo_promedio_clues_N3_mas_cercano_T60": 0, "id_clues_N3_mas_cercano_T60": 0 }, "geometry": { "type": "Point", "coordinates": [ -98.3307614, 20.2414419 ] } },
{ "type": "Feature", "properties": { "CLUES": "HGIMO000964", "CLAVE.DE.LA.INSTITUCION": "IMO", "NOMBRE.DE.LA.INSTITUCION": "INSTITUTO MEXICANO DEL SEGURO SOCIAL REGIMEN BIENESTAR", "CLAVE.DE.LA.ENTIDAD": "13", "ENTIDAD": "HIDALGO", "CLAVE.DEL.MUNICIPIO": "035", "MUNICIPIO": "METEPEC", "CLAVE.DE.LA.LOCALIDAD": "0017", "LOCALIDAD": "ESTACION DE APULCO", "CLAVE.DE.LA.JURISDICCION": "02", "JURISDICCION": "TULANCINGO DE BRAVO", "CLAVE.DEL.TIPO.ESTABLECIMIENTO": "1", "NOMBRE.TIPO.ESTABLECIMIENTO": "DE CONSULTA EXTERNA", "CLAVE.DE.TIPOLOGIA": "UMR", "NOMBRE.DE.TIPOLOGIA": "UNIDAD MÉDICA RURAL", "CLAVE.DE.SUBTIPOLOGIA": "99", "NOMBRE.DE.SUBTIPOLOGIA": "NO ESPECIFICADO", "NOMBRE.DE.LA.UNIDAD": "ESTACIÓN DE APULCO", "NOMBRE.COMERCIAL": "ESTACIÓN DE APULCO", "CLAVE.TIPO.DE.VIALIDAD": "3", "TIPO.DE.VIALIDAD": "AVENIDA", "VIALIDAD": "EMILIO CARRANZA", "NUMERO.EXTERIOR": "74", "NUMERO.INTERIOR": null, "CLAVE.TIPO.DE.ASENTAMIENTO": "27", "TIPO.DE.ASENTAMIENTO": "RANCHERÍA", "ASENTAMIENTO": "ESTACIÓN DE APULCO", "CODIGO.POSTAL": "43410", "OBSERVACIONES.DE.LA.DIRECCION": "AV. EMILIO CARRANZA NO. 74", "CLAVE.ESTATUS.DE.OPERACION": "1", "ESTATUS.DE.OPERACION": "EN OPERACION", "RFC.DEL.ESTABLECIMIENTO": "IMS421231I45", "TELEFONO.1.DEL.ESTABLECIMIENTO": "7747455033", "EXTENSION.TELEFONICA.1.DEL.ESTABLECIMIENTO": null, "TELEFONO.2.DEL.ESTABLECIMIENTO": null, "EXTENSION.TELEFONICA.2.DEL.ESTABLECIMIENTO": null, "FECHA.DE.CONSTRUCCION": "06/08/1982", "FECHA.DE.INICIO.DE.OPERACION": "09/10/1983", "CLAVE.UNIDAD.MOVIL.MARCA": null, "UNIDAD.MOVIL.MARCA": null, "UNIDAD.MOVIL.MARCA.ESPECIFICA": null, "UNIDAD.MOVIL.MODELO": null, "CLAVE.UNIDAD.MOVIL.PROGRAMA": null, "UNIDAD.MOVIL.PROGRAMA": null, "CLAVE.UNIDAD.MOVIL.TIPO": null, "UNIDAD.MOVIL.TIPO": null, "CLAVE.UNIDAD.MOVIL.TIPOLOGIA": null, "UNIDAD.MOVIL.TIPOLOGIA": null, "CLAVE.DE.LA.INS.ADM": "IMO", "NOMBRE.DE.LA.INS.ADM": "IMSS BIENESTAR PROGRAMA", "CLAVE.NIVEL.ATENCION": "1", "NIVEL.ATENCION": "PRIMER NIVEL", "CLAVE.ESTRATO.UNIDAD": "1", "ESTRATO.UNIDAD": "RURAL", "CLAVE.TIPO.OBRA": "6", "TIPO.OBRA": "SIN MODIFICACION", "CLAVE.PROPIEDAD.DEL.INMUEBLE": "1", "PROPIEDAD.DEL.INMUEBLE": "PROPIO", "CLAVE.ULTIMO.MOVIMIENTO": "B", "ULTIMO.MOVIMIENTO": "MODIFICACION", "FECHA.ULTIMO.MOVIMIENTO": "08/05/2014", "COMENTARIOS.DE.LA.VALIDACION": null, "CLAVE.MOTIVO.BAJA": null, "MOTIVO.BAJA": null, "FECHA.EFECTIVA.DE.BAJA": null, "archivo_origen": "1er_N_Público", "Conteo_N1_T10": 0, "Conteo_N1_T20": 1, "Conteo_N1_T40": 1, "Conteo_N1_T60": 1, "Conteo_N2_T10": 0, "Conteo_N2_T20": 1, "Conteo_N2_T40": 1, "Conteo_N2_T60": 1, "Conteo_N3_T10": 0, "Conteo_N3_T20": 0, "Conteo_N3_T40": 0, "Conteo_N3_T60": 0, "CLUES_N1_mas_cercano": "HGIMB001790", "Tiempo_promedio_CLUES_N1_mas_cercano": 14.0619006467518, "CLUES_N2_mas_cercano": "HGIMO000952", "Tiempo_promedio_CLUES_N2_mas_cercano": 11.836551078741399, "CLUES_N3_mas_cercano": "HGIMB002304", "Tiempo_promedio_CLUES_N3_mas_cercano": 97.533595346409996, "POB1_T10": 35193.529394088298, "POB42_T10": 18613.7730248997, "POB84_T10": 16513.893831968999, "POB17_T10": 33706.9267253207, "POB18_T10": 32571.432728824399, "POB19_T10": 28355.652009849298, "POB20_T10": 26594.632796299102, "POB21_T10": 24754.5068207451, "POB22_T10": 20657.614048928299, "POB23_T10": 4704.7784775620503, "POB24_T10": 3248.81551152676, "POB25_T10": 2079.0571106110201, "SALUD1_T10": 24808.118440779701, "SALUD2_T10": 10294.548416088999, "SALUD3_T10": 12027.6780533089, "SALUD4_T10": 1887.9890495869199, "SALUD5_T10": 9819.9456373089306, "SALUD6_T10": 548.68547723181302, "SALUD7_T10": 341.36770026359699, "SALUD8_T10": 228, "SALUD9_T10": 103.322564983812, "SALUD10_T10": 137.299826547355, "CLUES_N1_10_T10": 0, "CLUES_N1_20_T10": 0, "CLUES_N1_40_T10": 0, "CLUES_N1_60_T10": 0, "tiempo_promedio_clues_N1_mas_cercano_T10": 0, "id_clues_N1_mas_cercano_T10": 0, "CLUES_N2_10_T10": 0, "CLUES_N2_20_T10": 0, "CLUES_N2_40_T10": 0, "CLUES_N2_60_T10": 0, "tiempo_promedio_clues_N2_mas_cercano_T10": 0, "id_clues_N2_mas_cercano_T10": 0, "CLUES_N3_10_T10": 0, "CLUES_N3_20_T10": 0, "CLUES_N3_40_T10": 0, "CLUES_N3_60_T10": 0, "tiempo_promedio_clues_N3_mas_cercano_T10": 0, "id_clues_N3_mas_cercano_T10": 0, "POB1_T20": 61823.9272215655, "POB42_T20": 32233.300367802301, "POB84_T20": 29477.568844871799, "POB17_T20": 59082.693526319199, "POB18_T20": 57041.749665517098, "POB19_T20": 49471.058046890597, "POB20_T20": 46256.524188336698, "POB21_T20": 42965.823844480197, "POB22_T20": 35708.255710433397, "POB23_T20": 8106.2626375668397, "POB24_T20": 5618.5014457837196, "POB25_T20": 3698.5350315352998, "SALUD1_T20": 44641.966861354696, "SALUD2_T20": 17027.1320107192, "SALUD3_T20": 20527.903470888901, "SALUD4_T20": 2523.1254522344798, "SALUD5_T20": 20119.971526545101, "SALUD6_T20": 723.42693646942303, "SALUD7_T20": 483.52840299658197, "SALUD8_T20": 271.502450176737, "SALUD9_T20": 129.734820115448, "SALUD10_T20": 286.58908079538497, "CLUES_N1_10_T20": 0, "CLUES_N1_20_T20": 0, "CLUES_N1_40_T20": 0, "CLUES_N1_60_T20": 0, "tiempo_promedio_clues_N1_mas_cercano_T20": 0, "id_clues_N1_mas_cercano_T20": 0, "CLUES_N2_10_T20": 0, "CLUES_N2_20_T20": 0, "CLUES_N2_40_T20": 0, "CLUES_N2_60_T20": 0, "tiempo_promedio_clues_N2_mas_cercano_T20": 0, "id_clues_N2_mas_cercano_T20": 0, "CLUES_N3_10_T20": 0, "CLUES_N3_20_T20": 0, "CLUES_N3_40_T20": 0, "CLUES_N3_60_T20": 0, "tiempo_promedio_clues_N3_mas_cercano_T20": 0, "id_clues_N3_mas_cercano_T20": 0, "POB1_T40": 142404.715084822, "POB42_T40": 73994.465692985803, "POB84_T40": 68095.325505021101, "POB17_T40": 136480.40907260799, "POB18_T40": 132102.28738160001, "POB19_T40": 115647.241160912, "POB20_T40": 108442.56172740299, "POB21_T40": 101012.564012737, "POB22_T40": 84812.4701158885, "POB23_T40": 20077.3019461855, "POB24_T40": 13818.893390020099, "POB25_T40": 9060.0493491185898, "SALUD1_T40": 102828.985425156, "SALUD2_T40": 39136.097460623001, "SALUD3_T40": 59509.7178147784, "SALUD4_T40": 5647.7150184606098, "SALUD5_T40": 35100.021900343498, "SALUD6_T40": 952.05698810833303, "SALUD7_T40": 1234.83324890982, "SALUD8_T40": 577.08312227454098, "SALUD9_T40": 247, "SALUD10_T40": 529.84138708417402, "CLUES_N1_10_T40": 0, "CLUES_N1_20_T40": 0, "CLUES_N1_40_T40": 0, "CLUES_N1_60_T40": 0, "tiempo_promedio_clues_N1_mas_cercano_T40": 0, "id_clues_N1_mas_cercano_T40": 0, "CLUES_N2_10_T40": 0, "CLUES_N2_20_T40": 0, "CLUES_N2_40_T40": 0, "CLUES_N2_60_T40": 0, "tiempo_promedio_clues_N2_mas_cercano_T40": 0, "id_clues_N2_mas_cercano_T40": 0, "CLUES_N3_10_T40": 0, "CLUES_N3_20_T40": 0, "CLUES_N3_40_T40": 0, "CLUES_N3_60_T40": 0, "tiempo_promedio_clues_N3_mas_cercano_T40": 0, "id_clues_N3_mas_cercano_T40": 0, "POB1_T60": 166822, "POB42_T60": 86531, "POB84_T60": 79816, "POB17_T60": 159823, "POB18_T60": 154673, "POB19_T60": 135214, "POB20_T60": 126714, "POB21_T60": 118031, "POB22_T60": 99087, "POB23_T60": 23572, "POB24_T60": 16301, "POB25_T60": 10734, "SALUD1_T60": 117098, "SALUD2_T60": 49101, "SALUD3_T60": 65008, "SALUD4_T60": 6723, "SALUD5_T60": 42041, "SALUD6_T60": 1049, "SALUD7_T60": 1742, "SALUD8_T60": 731, "SALUD9_T60": 270, "SALUD10_T60": 569, "CLUES_N1_10_T60": 0, "CLUES_N1_20_T60": 0, "CLUES_N1_40_T60": 0, "CLUES_N1_60_T60": 0, "tiempo_promedio_clues_N1_mas_cercano_T60": 0, "id_clues_N1_mas_cercano_T60": 0, "CLUES_N2_10_T60": 0, "CLUES_N2_20_T60": 0, "CLUES_N2_40_T60": 0, "CLUES_N2_60_T60": 0, "tiempo_promedio_clues_N2_mas_cercano_T60": 0, "id_clues_N2_mas_cercano_T60": 0, "CLUES_N3_10_T60": 0, "CLUES_N3_20_T60": 0, "CLUES_N3_40_T60": 0, "CLUES_N3_60_T60": 0, "tiempo_promedio_clues_N3_mas_cercano_T60": 0, "id_clues_N3_mas_cercano_T60": 0 }, "geometry": { "type": "Point", "coordinates": [ -98.345542, 20.289036 ] } },
{ "type": "Feature", "properties": { "CLUES": "HGSMP000864", "CLAVE.DE.LA.INSTITUCION": "SMP", "NOMBRE.DE.LA.INSTITUCION": "SERVICIOS MEDICOS PRIVADOS", "CLAVE.DE.LA.ENTIDAD": "13", "ENTIDAD": "HIDALGO", "CLAVE.DEL.MUNICIPIO": "008", "MUNICIPIO": "APAN", "CLAVE.DE.LA.LOCALIDAD": "0001", "LOCALIDAD": "APAN", "CLAVE.DE.LA.JURISDICCION": "10", "JURISDICCION": "APAN", "CLAVE.DEL.TIPO.ESTABLECIMIENTO": "2", "NOMBRE.TIPO.ESTABLECIMIENTO": "DE HOSPITALIZACIÓN", "CLAVE.DE.TIPOLOGIA": "99", "NOMBRE.DE.TIPOLOGIA": "NO ESPECIFICADO", "CLAVE.DE.SUBTIPOLOGIA": "99", "NOMBRE.DE.SUBTIPOLOGIA": "NO ESPECIFICADO", "NOMBRE.DE.LA.UNIDAD": "CLÍNICA BELEM 24 HORAS", "NOMBRE.COMERCIAL": "CLÍNICA BELEM 24 HORAS", "CLAVE.TIPO.DE.VIALIDAD": null, "TIPO.DE.VIALIDAD": null, "VIALIDAD": "ALDAMA ESQUINA REFORMA", "NUMERO.EXTERIOR": "14  ", "NUMERO.INTERIOR": null, "CLAVE.TIPO.DE.ASENTAMIENTO": null, "TIPO.DE.ASENTAMIENTO": null, "ASENTAMIENTO": "CENTRO", "CODIGO.POSTAL": "43900", "OBSERVACIONES.DE.LA.DIRECCION": "ALDAMA ESQ. REFORMA NO. 14, COL. CENTRO", "CLAVE.ESTATUS.DE.OPERACION": "1", "ESTATUS.DE.OPERACION": "EN OPERACION", "RFC.DEL.ESTABLECIMIENTO": null, "TELEFONO.1.DEL.ESTABLECIMIENTO": null, "EXTENSION.TELEFONICA.1.DEL.ESTABLECIMIENTO": null, "TELEFONO.2.DEL.ESTABLECIMIENTO": null, "EXTENSION.TELEFONICA.2.DEL.ESTABLECIMIENTO": null, "FECHA.DE.CONSTRUCCION": null, "FECHA.DE.INICIO.DE.OPERACION": "01/10/1994", "CLAVE.UNIDAD.MOVIL.MARCA": null, "UNIDAD.MOVIL.MARCA": null, "UNIDAD.MOVIL.MARCA.ESPECIFICA": null, "UNIDAD.MOVIL.MODELO": null, "CLAVE.UNIDAD.MOVIL.PROGRAMA": null, "UNIDAD.MOVIL.PROGRAMA": null, "CLAVE.UNIDAD.MOVIL.TIPO": null, "UNIDAD.MOVIL.TIPO": null, "CLAVE.UNIDAD.MOVIL.TIPOLOGIA": null, "UNIDAD.MOVIL.TIPOLOGIA": null, "CLAVE.DE.LA.INS.ADM": "NES", "NOMBRE.DE.LA.INS.ADM": "NO ESPECIFICADO", "CLAVE.NIVEL.ATENCION": "2", "NIVEL.ATENCION": "SEGUNDO NIVEL", "CLAVE.ESTRATO.UNIDAD": "2", "ESTRATO.UNIDAD": "URBANO", "CLAVE.TIPO.OBRA": null, "TIPO.OBRA": null, "CLAVE.PROPIEDAD.DEL.INMUEBLE": null, "PROPIEDAD.DEL.INMUEBLE": null, "CLAVE.ULTIMO.MOVIMIENTO": null, "ULTIMO.MOVIMIENTO": null, "FECHA.ULTIMO.MOVIMIENTO": null, "COMENTARIOS.DE.LA.VALIDACION": null, "CLAVE.MOTIVO.BAJA": null, "MOTIVO.BAJA": null, "FECHA.EFECTIVA.DE.BAJA": null, "archivo_origen": "2do_N_Privado", "Conteo_N1_T10": 0, "Conteo_N1_T20": 2, "Conteo_N1_T40": 3, "Conteo_N1_T60": 3, "Conteo_N2_T10": 3, "Conteo_N2_T20": 3, "Conteo_N2_T40": 3, "Conteo_N2_T60": 3, "Conteo_N3_T10": 0, "Conteo_N3_T20": 0, "Conteo_N3_T40": 0, "Conteo_N3_T60": 0, "CLUES_N1_mas_cercano": "HGIMB000344", "Tiempo_promedio_CLUES_N1_mas_cercano": 11.599489105857099, "CLUES_N2_mas_cercano": "HGSMP000905", "Tiempo_promedio_CLUES_N2_mas_cercano": 0.47581922893442502, "CLUES_N3_mas_cercano": "HGIMB002304", "Tiempo_promedio_CLUES_N3_mas_cercano": 98.0497413745763, "POB1_T10": 35193.529394088298, "POB42_T10": 18613.7730248997, "POB84_T10": 16513.893831968999, "POB17_T10": 33706.9267253207, "POB18_T10": 32571.432728824399, "POB19_T10": 28355.652009849298, "POB20_T10": 26594.632796299102, "POB21_T10": 24754.5068207451, "POB22_T10": 20657.614048928299, "POB23_T10": 4704.7784775620503, "POB24_T10": 3248.81551152676, "POB25_T10": 2079.0571106110201, "SALUD1_T10": 24808.118440779701, "SALUD2_T10": 10294.548416088999, "SALUD3_T10": 12027.6780533089, "SALUD4_T10": 1887.9890495869199, "SALUD5_T10": 9819.9456373089306, "SALUD6_T10": 548.68547723181302, "SALUD7_T10": 341.36770026359699, "SALUD8_T10": 228, "SALUD9_T10": 103.322564983812, "SALUD10_T10": 137.299826547355, "CLUES_N1_10_T10": 0, "CLUES_N1_20_T10": 0, "CLUES_N1_40_T10": 0, "CLUES_N1_60_T10": 0, "tiempo_promedio_clues_N1_mas_cercano_T10": 0, "id_clues_N1_mas_cercano_T10": 0, "CLUES_N2_10_T10": 0, "CLUES_N2_20_T10": 0, "CLUES_N2_40_T10": 0, "CLUES_N2_60_T10": 0, "tiempo_promedio_clues_N2_mas_cercano_T10": 0, "id_clues_N2_mas_cercano_T10": 0, "CLUES_N3_10_T10": 0, "CLUES_N3_20_T10": 0, "CLUES_N3_40_T10": 0, "CLUES_N3_60_T10": 0, "tiempo_promedio_clues_N3_mas_cercano_T10": 0, "id_clues_N3_mas_cercano_T10": 0, "POB1_T20": 61823.9272215655, "POB42_T20": 32233.300367802301, "POB84_T20": 29477.568844871799, "POB17_T20": 59082.693526319199, "POB18_T20": 57041.749665517098, "POB19_T20": 49471.058046890597, "POB20_T20": 46256.524188336698, "POB21_T20": 42965.823844480197, "POB22_T20": 35708.255710433397, "POB23_T20": 8106.2626375668397, "POB24_T20": 5618.5014457837196, "POB25_T20": 3698.5350315352998, "SALUD1_T20": 44641.966861354696, "SALUD2_T20": 17027.1320107192, "SALUD3_T20": 20527.903470888901, "SALUD4_T20": 2523.1254522344798, "SALUD5_T20": 20119.971526545101, "SALUD6_T20": 723.42693646942303, "SALUD7_T20": 483.52840299658197, "SALUD8_T20": 271.502450176737, "SALUD9_T20": 129.734820115448, "SALUD10_T20": 286.58908079538497, "CLUES_N1_10_T20": 0, "CLUES_N1_20_T20": 0, "CLUES_N1_40_T20": 0, "CLUES_N1_60_T20": 0, "tiempo_promedio_clues_N1_mas_cercano_T20": 0, "id_clues_N1_mas_cercano_T20": 0, "CLUES_N2_10_T20": 0, "CLUES_N2_20_T20": 0, "CLUES_N2_40_T20": 0, "CLUES_N2_60_T20": 0, "tiempo_promedio_clues_N2_mas_cercano_T20": 0, "id_clues_N2_mas_cercano_T20": 0, "CLUES_N3_10_T20": 0, "CLUES_N3_20_T20": 0, "CLUES_N3_40_T20": 0, "CLUES_N3_60_T20": 0, "tiempo_promedio_clues_N3_mas_cercano_T20": 0, "id_clues_N3_mas_cercano_T20": 0, "POB1_T40": 142404.715084822, "POB42_T40": 73994.465692985803, "POB84_T40": 68095.325505021101, "POB17_T40": 136480.40907260799, "POB18_T40": 132102.28738160001, "POB19_T40": 115647.241160912, "POB20_T40": 108442.56172740299, "POB21_T40": 101012.564012737, "POB22_T40": 84812.4701158885, "POB23_T40": 20077.3019461855, "POB24_T40": 13818.893390020099, "POB25_T40": 9060.0493491185898, "SALUD1_T40": 102828.985425156, "SALUD2_T40": 39136.097460623001, "SALUD3_T40": 59509.7178147784, "SALUD4_T40": 5647.7150184606098, "SALUD5_T40": 35100.021900343498, "SALUD6_T40": 952.05698810833303, "SALUD7_T40": 1234.83324890982, "SALUD8_T40": 577.08312227454098, "SALUD9_T40": 247, "SALUD10_T40": 529.84138708417402, "CLUES_N1_10_T40": 0, "CLUES_N1_20_T40": 0, "CLUES_N1_40_T40": 0, "CLUES_N1_60_T40": 0, "tiempo_promedio_clues_N1_mas_cercano_T40": 0, "id_clues_N1_mas_cercano_T40": 0, "CLUES_N2_10_T40": 0, "CLUES_N2_20_T40": 0, "CLUES_N2_40_T40": 0, "CLUES_N2_60_T40": 0, "tiempo_promedio_clues_N2_mas_cercano_T40": 0, "id_clues_N2_mas_cercano_T40": 0, "CLUES_N3_10_T40": 0, "CLUES_N3_20_T40": 0, "CLUES_N3_40_T40": 0, "CLUES_N3_60_T40": 0, "tiempo_promedio_clues_N3_mas_cercano_T40": 0, "id_clues_N3_mas_cercano_T40": 0, "POB1_T60": 166822, "POB42_T60": 86531, "POB84_T60": 79816, "POB17_T60": 159823, "POB18_T60": 154673, "POB19_T60": 135214, "POB20_T60": 126714, "POB21_T60": 118031, "POB22_T60": 99087, "POB23_T60": 23572, "POB24_T60": 16301, "POB25_T60": 10734, "SALUD1_T60": 117098, "SALUD2_T60": 49101, "SALUD3_T60": 65008, "SALUD4_T60": 6723, "SALUD5_T60": 42041, "SALUD6_T60": 1049, "SALUD7_T60": 1742, "SALUD8_T60": 731, "SALUD9_T60": 270, "SALUD10_T60": 569, "CLUES_N1_10_T60": 0, "CLUES_N1_20_T60": 0, "CLUES_N1_40_T60": 0, "CLUES_N1_60_T60": 0, "tiempo_promedio_clues_N1_mas_cercano_T60": 0, "id_clues_N1_mas_cercano_T60": 0, "CLUES_N2_10_T60": 0, "CLUES_N2_20_T60": 0, "CLUES_N2_40_T60": 0, "CLUES_N2_60_T60": 0, "tiempo_promedio_clues_N2_mas_cercano_T60": 0, "id_clues_N2_mas_cercano_T60": 0, "CLUES_N3_10_T60": 0, "CLUES_N3_20_T60": 0, "CLUES_N3_40_T60": 0, "CLUES_N3_60_T60": 0, "tiempo_promedio_clues_N3_mas_cercano_T60": 0, "id_clues_N3_mas_cercano_T60": 0 }, "geometry": { "type": "Point", "coordinates": [ -98.45, 19.7094 ] } },
{ "type": "Feature", "properties": { "CLUES": "HGSMP000881", "CLAVE.DE.LA.INSTITUCION": "SMP", "NOMBRE.DE.LA.INSTITUCION": "SERVICIOS MEDICOS PRIVADOS", "CLAVE.DE.LA.ENTIDAD": "13", "ENTIDAD": "HIDALGO", "CLAVE.DEL.MUNICIPIO": "008", "MUNICIPIO": "APAN", "CLAVE.DE.LA.LOCALIDAD": "0001", "LOCALIDAD": "APAN", "CLAVE.DE.LA.JURISDICCION": "10", "JURISDICCION": "APAN", "CLAVE.DEL.TIPO.ESTABLECIMIENTO": "2", "NOMBRE.TIPO.ESTABLECIMIENTO": "DE HOSPITALIZACIÓN", "CLAVE.DE.TIPOLOGIA": "99", "NOMBRE.DE.TIPOLOGIA": "NO ESPECIFICADO", "CLAVE.DE.SUBTIPOLOGIA": "99", "NOMBRE.DE.SUBTIPOLOGIA": "NO ESPECIFICADO", "NOMBRE.DE.LA.UNIDAD": "NUESTRA SEÑORA DE GUADALUPE", "NOMBRE.COMERCIAL": "NUESTRA SEÑORA DE GUADALUPE", "CLAVE.TIPO.DE.VIALIDAD": null, "TIPO.DE.VIALIDAD": null, "VIALIDAD": "12 DE OCTUBRE", "NUMERO.EXTERIOR": "11  ", "NUMERO.INTERIOR": null, "CLAVE.TIPO.DE.ASENTAMIENTO": null, "TIPO.DE.ASENTAMIENTO": null, "ASENTAMIENTO": "CENTRO", "CODIGO.POSTAL": "43900", "OBSERVACIONES.DE.LA.DIRECCION": "12 DE OCTUBRE NO. 11, COL. LOS CAPULINES", "CLAVE.ESTATUS.DE.OPERACION": "1", "ESTATUS.DE.OPERACION": "EN OPERACION", "RFC.DEL.ESTABLECIMIENTO": null, "TELEFONO.1.DEL.ESTABLECIMIENTO": null, "EXTENSION.TELEFONICA.1.DEL.ESTABLECIMIENTO": null, "TELEFONO.2.DEL.ESTABLECIMIENTO": null, "EXTENSION.TELEFONICA.2.DEL.ESTABLECIMIENTO": null, "FECHA.DE.CONSTRUCCION": null, "FECHA.DE.INICIO.DE.OPERACION": "04/02/1998", "CLAVE.UNIDAD.MOVIL.MARCA": null, "UNIDAD.MOVIL.MARCA": null, "UNIDAD.MOVIL.MARCA.ESPECIFICA": null, "UNIDAD.MOVIL.MODELO": null, "CLAVE.UNIDAD.MOVIL.PROGRAMA": null, "UNIDAD.MOVIL.PROGRAMA": null, "CLAVE.UNIDAD.MOVIL.TIPO": null, "UNIDAD.MOVIL.TIPO": null, "CLAVE.UNIDAD.MOVIL.TIPOLOGIA": null, "UNIDAD.MOVIL.TIPOLOGIA": null, "CLAVE.DE.LA.INS.ADM": "NES", "NOMBRE.DE.LA.INS.ADM": "NO ESPECIFICADO", "CLAVE.NIVEL.ATENCION": "2", "NIVEL.ATENCION": "SEGUNDO NIVEL", "CLAVE.ESTRATO.UNIDAD": "2", "ESTRATO.UNIDAD": "URBANO", "CLAVE.TIPO.OBRA": null, "TIPO.OBRA": null, "CLAVE.PROPIEDAD.DEL.INMUEBLE": null, "PROPIEDAD.DEL.INMUEBLE": null, "CLAVE.ULTIMO.MOVIMIENTO": null, "ULTIMO.MOVIMIENTO": null, "FECHA.ULTIMO.MOVIMIENTO": null, "COMENTARIOS.DE.LA.VALIDACION": null, "CLAVE.MOTIVO.BAJA": null, "MOTIVO.BAJA": null, "FECHA.EFECTIVA.DE.BAJA": null, "archivo_origen": "2do_N_Privado", "Conteo_N1_T10": 0, "Conteo_N1_T20": 2, "Conteo_N1_T40": 3, "Conteo_N1_T60": 3, "Conteo_N2_T10": 3, "Conteo_N2_T20": 3, "Conteo_N2_T40": 3, "Conteo_N2_T60": 3, "Conteo_N3_T10": 0, "Conteo_N3_T20": 0, "Conteo_N3_T40": 0, "Conteo_N3_T60": 0, "CLUES_N1_mas_cercano": "HGIMB000344", "Tiempo_promedio_CLUES_N1_mas_cercano": 10.578953370981599, "CLUES_N2_mas_cercano": "HGSMP000905", "Tiempo_promedio_CLUES_N2_mas_cercano": 1.3304714743435, "CLUES_N3_mas_cercano": "HGIMB002304", "Tiempo_promedio_CLUES_N3_mas_cercano": 97.180534348117604, "POB1_T10": 35193.529394088298, "POB42_T10": 18613.7730248997, "POB84_T10": 16513.893831968999, "POB17_T10": 33706.9267253207, "POB18_T10": 32571.432728824399, "POB19_T10": 28355.652009849298, "POB20_T10": 26594.632796299102, "POB21_T10": 24754.5068207451, "POB22_T10": 20657.614048928299, "POB23_T10": 4704.7784775620503, "POB24_T10": 3248.81551152676, "POB25_T10": 2079.0571106110201, "SALUD1_T10": 24808.118440779701, "SALUD2_T10": 10294.548416088999, "SALUD3_T10": 12027.6780533089, "SALUD4_T10": 1887.9890495869199, "SALUD5_T10": 9819.9456373089306, "SALUD6_T10": 548.68547723181302, "SALUD7_T10": 341.36770026359699, "SALUD8_T10": 228, "SALUD9_T10": 103.322564983812, "SALUD10_T10": 137.299826547355, "CLUES_N1_10_T10": 0, "CLUES_N1_20_T10": 0, "CLUES_N1_40_T10": 0, "CLUES_N1_60_T10": 0, "tiempo_promedio_clues_N1_mas_cercano_T10": 0, "id_clues_N1_mas_cercano_T10": 0, "CLUES_N2_10_T10": 0, "CLUES_N2_20_T10": 0, "CLUES_N2_40_T10": 0, "CLUES_N2_60_T10": 0, "tiempo_promedio_clues_N2_mas_cercano_T10": 0, "id_clues_N2_mas_cercano_T10": 0, "CLUES_N3_10_T10": 0, "CLUES_N3_20_T10": 0, "CLUES_N3_40_T10": 0, "CLUES_N3_60_T10": 0, "tiempo_promedio_clues_N3_mas_cercano_T10": 0, "id_clues_N3_mas_cercano_T10": 0, "POB1_T20": 61823.9272215655, "POB42_T20": 32233.300367802301, "POB84_T20": 29477.568844871799, "POB17_T20": 59082.693526319199, "POB18_T20": 57041.749665517098, "POB19_T20": 49471.058046890597, "POB20_T20": 46256.524188336698, "POB21_T20": 42965.823844480197, "POB22_T20": 35708.255710433397, "POB23_T20": 8106.2626375668397, "POB24_T20": 5618.5014457837196, "POB25_T20": 3698.5350315352998, "SALUD1_T20": 44641.966861354696, "SALUD2_T20": 17027.1320107192, "SALUD3_T20": 20527.903470888901, "SALUD4_T20": 2523.1254522344798, "SALUD5_T20": 20119.971526545101, "SALUD6_T20": 723.42693646942303, "SALUD7_T20": 483.52840299658197, "SALUD8_T20": 271.502450176737, "SALUD9_T20": 129.734820115448, "SALUD10_T20": 286.58908079538497, "CLUES_N1_10_T20": 0, "CLUES_N1_20_T20": 0, "CLUES_N1_40_T20": 0, "CLUES_N1_60_T20": 0, "tiempo_promedio_clues_N1_mas_cercano_T20": 0, "id_clues_N1_mas_cercano_T20": 0, "CLUES_N2_10_T20": 0, "CLUES_N2_20_T20": 0, "CLUES_N2_40_T20": 0, "CLUES_N2_60_T20": 0, "tiempo_promedio_clues_N2_mas_cercano_T20": 0, "id_clues_N2_mas_cercano_T20": 0, "CLUES_N3_10_T20": 0, "CLUES_N3_20_T20": 0, "CLUES_N3_40_T20": 0, "CLUES_N3_60_T20": 0, "tiempo_promedio_clues_N3_mas_cercano_T20": 0, "id_clues_N3_mas_cercano_T20": 0, "POB1_T40": 142404.715084822, "POB42_T40": 73994.465692985803, "POB84_T40": 68095.325505021101, "POB17_T40": 136480.40907260799, "POB18_T40": 132102.28738160001, "POB19_T40": 115647.241160912, "POB20_T40": 108442.56172740299, "POB21_T40": 101012.564012737, "POB22_T40": 84812.4701158885, "POB23_T40": 20077.3019461855, "POB24_T40": 13818.893390020099, "POB25_T40": 9060.0493491185898, "SALUD1_T40": 102828.985425156, "SALUD2_T40": 39136.097460623001, "SALUD3_T40": 59509.7178147784, "SALUD4_T40": 5647.7150184606098, "SALUD5_T40": 35100.021900343498, "SALUD6_T40": 952.05698810833303, "SALUD7_T40": 1234.83324890982, "SALUD8_T40": 577.08312227454098, "SALUD9_T40": 247, "SALUD10_T40": 529.84138708417402, "CLUES_N1_10_T40": 0, "CLUES_N1_20_T40": 0, "CLUES_N1_40_T40": 0, "CLUES_N1_60_T40": 0, "tiempo_promedio_clues_N1_mas_cercano_T40": 0, "id_clues_N1_mas_cercano_T40": 0, "CLUES_N2_10_T40": 0, "CLUES_N2_20_T40": 0, "CLUES_N2_40_T40": 0, "CLUES_N2_60_T40": 0, "tiempo_promedio_clues_N2_mas_cercano_T40": 0, "id_clues_N2_mas_cercano_T40": 0, "CLUES_N3_10_T40": 0, "CLUES_N3_20_T40": 0, "CLUES_N3_40_T40": 0, "CLUES_N3_60_T40": 0, "tiempo_promedio_clues_N3_mas_cercano_T40": 0, "id_clues_N3_mas_cercano_T40": 0, "POB1_T60": 166822, "POB42_T60": 86531, "POB84_T60": 79816, "POB17_T60": 159823, "POB18_T60": 154673, "POB19_T60": 135214, "POB20_T60": 126714, "POB21_T60": 118031, "POB22_T60": 99087, "POB23_T60": 23572, "POB24_T60": 16301, "POB25_T60": 10734, "SALUD1_T60": 117098, "SALUD2_T60": 49101, "SALUD3_T60": 65008, "SALUD4_T60": 6723, "SALUD5_T60": 42041, "SALUD6_T60": 1049, "SALUD7_T60": 1742, "SALUD8_T60": 731, "SALUD9_T60": 270, "SALUD10_T60": 569, "CLUES_N1_10_T60": 0, "CLUES_N1_20_T60": 0, "CLUES_N1_40_T60": 0, "CLUES_N1_60_T60": 0, "tiempo_promedio_clues_N1_mas_cercano_T60": 0, "id_clues_N1_mas_cercano_T60": 0, "CLUES_N2_10_T60": 0, "CLUES_N2_20_T60": 0, "CLUES_N2_40_T60": 0, "CLUES_N2_60_T60": 0, "tiempo_promedio_clues_N2_mas_cercano_T60": 0, "id_clues_N2_mas_cercano_T60": 0, "CLUES_N3_10_T60": 0, "CLUES_N3_20_T60": 0, "CLUES_N3_40_T60": 0, "CLUES_N3_60_T60": 0, "tiempo_promedio_clues_N3_mas_cercano_T60": 0, "id_clues_N3_mas_cercano_T60": 0 }, "geometry": { "type": "Point", "coordinates": [ -98.4560108, 19.7090418 ] } },
{ "type": "Feature", "properties": { "CLUES": "HGSMP000905", "CLAVE.DE.LA.INSTITUCION": "SMP", "NOMBRE.DE.LA.INSTITUCION": "SERVICIOS MEDICOS PRIVADOS", "CLAVE.DE.LA.ENTIDAD": "13", "ENTIDAD": "HIDALGO", "CLAVE.DEL.MUNICIPIO": "008", "MUNICIPIO": "APAN", "CLAVE.DE.LA.LOCALIDAD": "0001", "LOCALIDAD": "APAN", "CLAVE.DE.LA.JURISDICCION": "10", "JURISDICCION": "APAN", "CLAVE.DEL.TIPO.ESTABLECIMIENTO": "2", "NOMBRE.TIPO.ESTABLECIMIENTO": "DE HOSPITALIZACIÓN", "CLAVE.DE.TIPOLOGIA": "99", "NOMBRE.DE.TIPOLOGIA": "NO ESPECIFICADO", "CLAVE.DE.SUBTIPOLOGIA": "99", "NOMBRE.DE.SUBTIPOLOGIA": "NO ESPECIFICADO", "NOMBRE.DE.LA.UNIDAD": "GRUPO MÉDICO SANTA MARÍA", "NOMBRE.COMERCIAL": "GRUPO MÉDICO SANTA MARÍA", "CLAVE.TIPO.DE.VIALIDAD": null, "TIPO.DE.VIALIDAD": null, "VIALIDAD": "JUÁREZ PONIENTE", "NUMERO.EXTERIOR": "41  ", "NUMERO.INTERIOR": null, "CLAVE.TIPO.DE.ASENTAMIENTO": null, "TIPO.DE.ASENTAMIENTO": null, "ASENTAMIENTO": "CENTRO", "CODIGO.POSTAL": "43900", "OBSERVACIONES.DE.LA.DIRECCION": "JUÁREZ PONIENTE NO. 41, COL. CENTRO", "CLAVE.ESTATUS.DE.OPERACION": "1", "ESTATUS.DE.OPERACION": "EN OPERACION", "RFC.DEL.ESTABLECIMIENTO": null, "TELEFONO.1.DEL.ESTABLECIMIENTO": null, "EXTENSION.TELEFONICA.1.DEL.ESTABLECIMIENTO": null, "TELEFONO.2.DEL.ESTABLECIMIENTO": null, "EXTENSION.TELEFONICA.2.DEL.ESTABLECIMIENTO": null, "FECHA.DE.CONSTRUCCION": null, "FECHA.DE.INICIO.DE.OPERACION": "07/08/1998", "CLAVE.UNIDAD.MOVIL.MARCA": null, "UNIDAD.MOVIL.MARCA": null, "UNIDAD.MOVIL.MARCA.ESPECIFICA": null, "UNIDAD.MOVIL.MODELO": null, "CLAVE.UNIDAD.MOVIL.PROGRAMA": null, "UNIDAD.MOVIL.PROGRAMA": null, "CLAVE.UNIDAD.MOVIL.TIPO": null, "UNIDAD.MOVIL.TIPO": null, "CLAVE.UNIDAD.MOVIL.TIPOLOGIA": null, "UNIDAD.MOVIL.TIPOLOGIA": null, "CLAVE.DE.LA.INS.ADM": "NES", "NOMBRE.DE.LA.INS.ADM": "NO ESPECIFICADO", "CLAVE.NIVEL.ATENCION": "2", "NIVEL.ATENCION": "SEGUNDO NIVEL", "CLAVE.ESTRATO.UNIDAD": "2", "ESTRATO.UNIDAD": "URBANO", "CLAVE.TIPO.OBRA": null, "TIPO.OBRA": null, "CLAVE.PROPIEDAD.DEL.INMUEBLE": null, "PROPIEDAD.DEL.INMUEBLE": null, "CLAVE.ULTIMO.MOVIMIENTO": null, "ULTIMO.MOVIMIENTO": null, "FECHA.ULTIMO.MOVIMIENTO": null, "COMENTARIOS.DE.LA.VALIDACION": null, "CLAVE.MOTIVO.BAJA": null, "MOTIVO.BAJA": null, "FECHA.EFECTIVA.DE.BAJA": null, "archivo_origen": "2do_N_Privado", "Conteo_N1_T10": 0, "Conteo_N1_T20": 2, "Conteo_N1_T40": 3, "Conteo_N1_T60": 3, "Conteo_N2_T10": 3, "Conteo_N2_T20": 3, "Conteo_N2_T40": 3, "Conteo_N2_T60": 3, "Conteo_N3_T10": 0, "Conteo_N3_T20": 0, "Conteo_N3_T40": 0, "Conteo_N3_T60": 0, "CLUES_N1_mas_cercano": "HGIMB000344", "Tiempo_promedio_CLUES_N1_mas_cercano": 11.123669876922699, "CLUES_N2_mas_cercano": "HGSMP000864", "Tiempo_promedio_CLUES_N2_mas_cercano": 0.47581922893442502, "CLUES_N3_mas_cercano": "HGIMB002304", "Tiempo_promedio_CLUES_N3_mas_cercano": 97.888057529459402, "POB1_T10": 35193.529394088298, "POB42_T10": 18613.7730248997, "POB84_T10": 16513.893831968999, "POB17_T10": 33706.9267253207, "POB18_T10": 32571.432728824399, "POB19_T10": 28355.652009849298, "POB20_T10": 26594.632796299102, "POB21_T10": 24754.5068207451, "POB22_T10": 20657.614048928299, "POB23_T10": 4704.7784775620503, "POB24_T10": 3248.81551152676, "POB25_T10": 2079.0571106110201, "SALUD1_T10": 24808.118440779701, "SALUD2_T10": 10294.548416088999, "SALUD3_T10": 12027.6780533089, "SALUD4_T10": 1887.9890495869199, "SALUD5_T10": 9819.9456373089306, "SALUD6_T10": 548.68547723181302, "SALUD7_T10": 341.36770026359699, "SALUD8_T10": 228, "SALUD9_T10": 103.322564983812, "SALUD10_T10": 137.299826547355, "CLUES_N1_10_T10": 0, "CLUES_N1_20_T10": 0, "CLUES_N1_40_T10": 0, "CLUES_N1_60_T10": 0, "tiempo_promedio_clues_N1_mas_cercano_T10": 0, "id_clues_N1_mas_cercano_T10": 0, "CLUES_N2_10_T10": 0, "CLUES_N2_20_T10": 0, "CLUES_N2_40_T10": 0, "CLUES_N2_60_T10": 0, "tiempo_promedio_clues_N2_mas_cercano_T10": 0, "id_clues_N2_mas_cercano_T10": 0, "CLUES_N3_10_T10": 0, "CLUES_N3_20_T10": 0, "CLUES_N3_40_T10": 0, "CLUES_N3_60_T10": 0, "tiempo_promedio_clues_N3_mas_cercano_T10": 0, "id_clues_N3_mas_cercano_T10": 0, "POB1_T20": 61823.9272215655, "POB42_T20": 32233.300367802301, "POB84_T20": 29477.568844871799, "POB17_T20": 59082.693526319199, "POB18_T20": 57041.749665517098, "POB19_T20": 49471.058046890597, "POB20_T20": 46256.524188336698, "POB21_T20": 42965.823844480197, "POB22_T20": 35708.255710433397, "POB23_T20": 8106.2626375668397, "POB24_T20": 5618.5014457837196, "POB25_T20": 3698.5350315352998, "SALUD1_T20": 44641.966861354696, "SALUD2_T20": 17027.1320107192, "SALUD3_T20": 20527.903470888901, "SALUD4_T20": 2523.1254522344798, "SALUD5_T20": 20119.971526545101, "SALUD6_T20": 723.42693646942303, "SALUD7_T20": 483.52840299658197, "SALUD8_T20": 271.502450176737, "SALUD9_T20": 129.734820115448, "SALUD10_T20": 286.58908079538497, "CLUES_N1_10_T20": 0, "CLUES_N1_20_T20": 0, "CLUES_N1_40_T20": 0, "CLUES_N1_60_T20": 0, "tiempo_promedio_clues_N1_mas_cercano_T20": 0, "id_clues_N1_mas_cercano_T20": 0, "CLUES_N2_10_T20": 0, "CLUES_N2_20_T20": 0, "CLUES_N2_40_T20": 0, "CLUES_N2_60_T20": 0, "tiempo_promedio_clues_N2_mas_cercano_T20": 0, "id_clues_N2_mas_cercano_T20": 0, "CLUES_N3_10_T20": 0, "CLUES_N3_20_T20": 0, "CLUES_N3_40_T20": 0, "CLUES_N3_60_T20": 0, "tiempo_promedio_clues_N3_mas_cercano_T20": 0, "id_clues_N3_mas_cercano_T20": 0, "POB1_T40": 142404.715084822, "POB42_T40": 73994.465692985803, "POB84_T40": 68095.325505021101, "POB17_T40": 136480.40907260799, "POB18_T40": 132102.28738160001, "POB19_T40": 115647.241160912, "POB20_T40": 108442.56172740299, "POB21_T40": 101012.564012737, "POB22_T40": 84812.4701158885, "POB23_T40": 20077.3019461855, "POB24_T40": 13818.893390020099, "POB25_T40": 9060.0493491185898, "SALUD1_T40": 102828.985425156, "SALUD2_T40": 39136.097460623001, "SALUD3_T40": 59509.7178147784, "SALUD4_T40": 5647.7150184606098, "SALUD5_T40": 35100.021900343498, "SALUD6_T40": 952.05698810833303, "SALUD7_T40": 1234.83324890982, "SALUD8_T40": 577.08312227454098, "SALUD9_T40": 247, "SALUD10_T40": 529.84138708417402, "CLUES_N1_10_T40": 0, "CLUES_N1_20_T40": 0, "CLUES_N1_40_T40": 0, "CLUES_N1_60_T40": 0, "tiempo_promedio_clues_N1_mas_cercano_T40": 0, "id_clues_N1_mas_cercano_T40": 0, "CLUES_N2_10_T40": 0, "CLUES_N2_20_T40": 0, "CLUES_N2_40_T40": 0, "CLUES_N2_60_T40": 0, "tiempo_promedio_clues_N2_mas_cercano_T40": 0, "id_clues_N2_mas_cercano_T40": 0, "CLUES_N3_10_T40": 0, "CLUES_N3_20_T40": 0, "CLUES_N3_40_T40": 0, "CLUES_N3_60_T40": 0, "tiempo_promedio_clues_N3_mas_cercano_T40": 0, "id_clues_N3_mas_cercano_T40": 0, "POB1_T60": 166822, "POB42_T60": 86531, "POB84_T60": 79816, "POB17_T60": 159823, "POB18_T60": 154673, "POB19_T60": 135214, "POB20_T60": 126714, "POB21_T60": 118031, "POB22_T60": 99087, "POB23_T60": 23572, "POB24_T60": 16301, "POB25_T60": 10734, "SALUD1_T60": 117098, "SALUD2_T60": 49101, "SALUD3_T60": 65008, "SALUD4_T60": 6723, "SALUD5_T60": 42041, "SALUD6_T60": 1049, "SALUD7_T60": 1742, "SALUD8_T60": 731, "SALUD9_T60": 270, "SALUD10_T60": 569, "CLUES_N1_10_T60": 0, "CLUES_N1_20_T60": 0, "CLUES_N1_40_T60": 0, "CLUES_N1_60_T60": 0, "tiempo_promedio_clues_N1_mas_cercano_T60": 0, "id_clues_N1_mas_cercano_T60": 0, "CLUES_N2_10_T60": 0, "CLUES_N2_20_T60": 0, "CLUES_N2_40_T60": 0, "CLUES_N2_60_T60": 0, "tiempo_promedio_clues_N2_mas_cercano_T60": 0, "id_clues_N2_mas_cercano_T60": 0, "CLUES_N3_10_T60": 0, "CLUES_N3_20_T60": 0, "CLUES_N3_40_T60": 0, "CLUES_N3_60_T60": 0, "tiempo_promedio_clues_N3_mas_cercano_T60": 0, "id_clues_N3_mas_cercano_T60": 0 }, "geometry": { "type": "Point", "coordinates": [ -98.451139, 19.7084674 ] } }
]
}
